"name","url","calendar_url","email","contact","type_group","Categories","description","notes","source","activity_level","audience_size","ownership","image","location","address","neighborhood","district","region","zipcode","city","state","area_code","latitude","longitude","location_geo","civic_taxonomy"
"14th Ave NW Visioning Project","http://www.14avenw.org/",,,,"website","Road development",,,,,,"community",,,,"Ballard","Ballard","NW",,"Seattle","WA",,,,,
"At Large in Ballard","http://blog.seattlepi.com/ballard/",,,,"blog","News, Human interest",,,,,,"commercial",,,,"Ballard","Ballard","NW",,"Seattle","WA",,,,,
"Ballard Avenue","http://www.ballardavenue.blogspot.com/",,,,"blog","Personal blog, Hyperlocal",,,,,,"community",,,,"Ballard","Ballard","NW",,"Seattle","WA",,,,,
"Ballard Blog","http://ballardblog.com/",,,,"blog","News, Events, Human interest, Criminal activity, Crime, Public Safety, Shopping",,,,,,"commercial",,,,"Ballard","Ballard","NW",,"Seattle","WA",,,,,
"Ballard Chamber of Commerce","http://www.ballardchamber.com/",,,,"website","Chamber of Commerce",,,,,,"community",,,,"Ballard","Ballard","NW",,"Seattle","WA",,,,,
"Ballard District Council","http://www.ballarddistrictcouncil.org/",,,,"website","District council",,,,,,"community",,,,"Ballard","Ballard","NW",,"Seattle","WA",,,,,
"Ballard Gossip Girl","http://www.ballardgossipgirl.com/",,,,"blog","Restaurants, Nightlife, Shopping",,,,,,"commercial",,,,"Ballard","Ballard","NW",,"Seattle","WA",,,,,
"Ballard Historical Society","http://www.ballardhistory.org/",,,,"website","Historical society",,,,,,"community",,,,"Ballard","Ballard","NW",,"Seattle","WA",,,,,
"Ballard Moms","http://groups.yahoo.com/group/BallardMoms/",,,,"email list","Parents, Parenting, Parent group",,,,,,"community",,,,"Ballard","Ballard","NW",,"Seattle","WA",,,,,
"Ballard Neighbor Connection","http://groups.yahoo.com/group/BallardNeighborConnection/",,,,"email list","Neighborhood residents",,,,,,"community",,,,"Ballard","Ballard","NW",,"Seattle","WA",,,,,
"ballardite blog","http://www.ballardite.blogspot.com/",,,,"blog","News, Personal",,,,,,"personal",,,,"Ballard","Ballard","NW",,"Seattle","WA",,,,,
"Central Ballard Community Council","http://www.neighborhoodlink.com/seattle/cbcc/",,,,"website","Community council",,,,,,"community",,,,"Ballard","Ballard","NW",,"Seattle","WA",,,,,
"Crown Hill Neighbors","http://www.crownhillneighbors.org",,,,"website","Neighborhood issues, neighborhood planning, News",,,,,,"community",,,,"Crown Hill","Ballard","NW",,"Seattle","WA",,,,,
"East Ballard Community Association Blog","http://eastballard.wordpress.com/",,,,"blog","Community association, News, Events, meeting",,,,,,"community",,,,"Ballard","Ballard","NW",,"Seattle","WA",,,,,
"InBallard","http://inballard.com/",,,,"website","Food, nightlife, Shopping, services",,,,,,"commercial",,,,"Ballard","Ballard","NW",,"Seattle","WA",,,,,
"MyBallard","http://www.myballard.com/",,,,"blog","News, Events, Human interest, Criminal activity, Crime, Public Safety, Shopping",,,,,,"commercial",,,,"Ballard","Ballard","NW",,"Seattle","WA",,,,,
"Shilshole Blog","http://shilsholecommunity.org/",,,,"blog","News, weather, Events, Criminal activity, Crime, Public Safety",,,,,,"commercial",,,,"Ballard","Ballard","NW",,"Seattle","WA",,,,,
"Sustainable Ballard","http://sustainableballard.org/wiki/index.php?title=Welcome_to_Sustainable_Ballard!",,,,"wiki","Community group",,,,,,"community",,,,"Ballard","Ballard","NW",,"Seattle","WA",,,,,
"Sustainable Crown Hill","http://sustainablecrownhill.org/wp/",,,,"website","Community group, Mailing list",,,,,,"community",,,,"Crown Hill","Ballard","NW",,"Seattle","WA",,,,,
"Walkable Crown Hill","http://walkablecrownhill.org/",,,,"website","Neighborhood group",,,,,,"community",,,,"Crown Hill","Ballard","NW",,"Seattle","WA",,,,,
"Central Area Community Festival Association","http://www.cacf.com/",,,,"website","Festival planning association",,,,,,"community",,,,"Central District","Central","E",,"Seattle","WA",,,,,
"Central District News","http://www.centraldistrictNews.com/",,,,"blog","News, Events, Food, Drink, Reviews",,,,,,"commercial",,,,"Central District","Central","E",,"Seattle","WA",,,,,
"Friends of Frink Park","http://www.frinkpark.org/",,,,"website","Park issues",,,,,,"community",,,,"Central District","Central","E",,"Seattle","WA",,,,,
"Leschi Community Council","http://groups.google.com/group/LeschiCC?hl=en",,,,"email list","Planning, meeting times",,,,,,"community",,,,"Leschi","Central","E",,"Seattle","WA",,,,,
"Madrona Moms","http://health.groups.yahoo.com/group/MadronaMoms/",,,,"email list","Community group, moms",,,,,,"community",,,,"Madrona","Central","E",,"Seattle","WA",,,,,
"Madrona Neighborhood","http://madrona.wetpaint.com/",,,,"wiki","Neighborhood community site, buying, selling, restaurants, favorite places, community association, meeting minutes",,,,,,"community",,,,"Madrona","Central","E",,"Seattle","WA",,,,,
"Squire Park Community Council","http://groups.yahoo.com/group/squirepark/",,,,"email list","Community group",,,,,,"community",,,,"Central District","Central","E",,"Seattle","WA",,,,,
"Squire Park Community Council","http://www.squirepark.org/",,,,"blog","Community group",,,,,,"community",,,,"Central District","Central","E",,"Seattle","WA",,,,,
"Community Harvest of Southwest Seattle","http://gleanit.org",,,,"website","Sustainable Food",,,,,,"community",,,,"West Seattle","Delridge","SW",,"Seattle","WA",,,,,
"Delridge Grassroots Leadership","http://delridge.blogspot.com/",,,,"website","Community organization",,,,,,"community",,,,"Delridge","Delridge","SW",,"Seattle","WA",,,,,
"Delridge Neighborhoods Development Association","http://www.dnda.org/",,,,"website","Neighborhood association",,,,,,"community",,,,"Delridge","Delridge","SW",,"Seattle","WA",,,,,
"Delridge Produce Cooperative","http://sites.google.com/site/delridgeproducecooperative/",,,,"website","Produce coop",,,,,,"community",,,,"Delridge","Delridge","SW",,"Seattle","WA",,,,,
"Highland Park Action Committee","http://www.highlandpk.net/",,,,"website","Community group",,,,,,"community",,,,"Highland Park","Delridge","SW",,"Seattle","WA",,,,,
"Highland Park Improvement Club","http://www.hpic1919.org/",,,,"blog","Neighborhood group",,,,,,"community",,,,"Highland Park","Delridge","SW",,"Seattle","WA",,,,,
"Longfellow Creek Community Website","http://www.longfellowcreek.org/",,,,"website","Watershed info",,,,,,"community",,,,"Delridge","Delridge","SW",,"Seattle","WA",,,,,
"Nature Consortium","http://www.naturec.org",,,,"website","Environmental conservation",,,,,,"community",,,,"Delridge","Delridge","SW",,"Seattle","WA",,,,,
"North Delridge Neighborhood Council","http://ndnc.org/",,,,"website","Events calendar",,,,,,"community",,,,"Delridge","Delridge","SW",,"Seattle","WA",,,,,
"Pigeon Point Neighborhood Council","http://www.pigeonpoint.org/",,,,"website","Neighborhood council",,,,,,"community",,,,"Pigeon Point","Delridge","SW",,"Seattle","WA",,,,,
"Westwood Neighborhood Council","http://www.scn.org/neighbors/westwood/",,,,"website","Neighborhood council",,,,,,"community",,,,"Westwood","Delridge","SW",,"Seattle","WA",,,,,
"White Center Community Development Association","http://www.wccda.org/home",,,,"website","Nonprofit",,,,,,"community",,,,"White Center","Delridge","SW",,"Seattle","WA",,,,,
"White Center Community Development Association blog","http://twitter.com/whitecentercda",,,,"website","Nonprofit",,,,,,"community",,,,"White Center","Delridge","SW",,"Seattle","WA",,,,,
"White Center Now","http://whitecenternow.com/",,,,"blog","News, Events, Food",,,,,,"community",,,,"White Center","Delridge","SW",,"Seattle","WA",,,,,
"Youngstown Cultural Arts Center","http://youngstownarts.org",,,,"website","Arts",,,,,,"community",,,,"Delridge","Delridge","SW",,"Seattle","WA",,,,,
"All About Belltown","http://www.belltown.org/",,,,"website","Lifestyle, community association, bus association",,,,,,"community",,,,"Belltown","Downtown","W",,"Seattle","WA",,,,,
"belltown","http://www.belltownpeople.com/",,,,"blog","News, Events",,,,,,"commercial",,,,"Belltown","Downtown","W",,"Seattle","WA",,,,,
"Belltown Community Council","http://www.belltowncommunitycouncil.org/",,,,"website","Community council",,,,,,"community",,,,"Belltown","Downtown","W",,"Seattle","WA",,,,,
"Chinatown/International District","http://www.cidbia.org/",,,,"website","Business improvement association",,,,,,"community",,,,"International District","Downtown","W",,"Seattle","WA",,,,,
"Chinese Information and Service Center","http://www.cisc-seattle.org/",,,,"website","Referral, advocacy, support services",,,,,,"nonprofit",,,,"International District","Downtown","W",,"Seattle","WA",,,,,
"Downtown Dispatch","http://downtowndispatch.com/",,,,"blog","News and Events",,,,,,"commercial",,,,"Downtown","Downtown","W",,"Seattle","WA",,,,,
"Downtown Seattle Association","http://www.downtownseattle.com/",,,,"website","Business association",,,,,,,,,,"Downtown","Downtown","W",,"Seattle","WA",,,,,
"KOMO Communities - Downtown","http://downtown.komoNews.com",,,,"blog","News, Events, Human interest, Criminal activity, Crime, Public Safety, Shopping",,,,,,"commercial",,,,"Downtown","Downtown","W",,"Seattle","WA",,,,,
"Pioneer Square Community Association","http://www.pioneersquare.org/",,,,"website","Community organization",,,,,,"community",,,,"Pioneer Square","Downtown","W",,"Seattle","WA",,,,,
"SCIPDA","http://www.scidpda.org/",,,,"website","Public development authority",,,,,,"community",,,,"International District","Downtown","W",,"Seattle","WA",,,,,
"Seattle Chinatown Guide","http://www.chinatownconnection.com/seattle-chinatown-international-district.htm",,,,"website","Food, Shopping",,,,,,"commercial",,,,"International District","Downtown","W",,"Seattle","WA",,,,,
"SoDo Business Association","http://www.sodobusinessassociation.org/",,,,"website","Business association",,,,,,"community",,,,"SoDo","Downtown","S",,"Seattle","WA",,,,,
"Wing Luke Asian Museum","http://www.wingluke.org/",,,,"website","Museum",,,,,,"community",,,,"International District","Downtown","W",,"Seattle","WA",,,,,
"15th Ave Community","http://groups.yahoo.com/group/15thAve_Community/",,,,"email list","Residents, 15Th avenue",,,,,,"community",,,,"Capitol Hill","East","E",,"Seattle","WA",,,,,
"Capitol Hill Community Council","http://chcc.wikidot.com/",,,,"wiki","Community council, News, Events",,,,,,"community",,,,"Capitol Hill","East","E",,"Seattle","WA",,,,,
"Capitol Hill Housing","http://capitolhillhousing.org/",,,,"website","Affordable housing",,,,,,"community",,,,"Capitol Hill","East","E",,"Seattle","WA",,,,,
"Capitol Hill Triangle","http://chtriangle.blogspot.com/",,,,"blog","Local miscellany ",,,,,,"commercial",,,,"Capitol Hill","East","E",,"Seattle","WA",,,,,
"CHS Capitol Hill Seattle Blog","http://www.capitolhillseattle.com/",,,,"blog","News, Events, Food, Drink, Criminal activity, Crime, Public Safety",,,,,,"commercial",,,,"Capitol Hill","East","E",,"Seattle","WA",,,,,
"First Hill Improvement Association","http://www.firsthill.org/",,,,"website","Neighborhood association",,,,,,"community",,,,"First Hill","East","E",,"Seattle","WA",,,,,
"KOMO Communities - Captol Hill","http://capitolhill.komoNews.com",,,,"blog","News, Events, Human interest, Criminal activity, Crime, Public Safety, Shopping",,,,,,"commercial",,,,"Capitol Hill","East","E",,"Seattle","WA",,,,,
"KOMO Communities - Central District","http://centraldistrict.komoNews.com",,,,"blog","News, Events, Human interest, Criminal activity, Crime, Public Safety, Shopping",,,,,,"commercial",,,,"Central District","East","E ",,"Seattle","WA",,,,,
"KOMO Communities - Madison Park","http://madisonpark.komoNews.com",,,,"blog","News, Events, Human interest, Criminal activity, Crime, Public Safety, Shopping",,,,,,"commercial",,,,"Madison Park","East","E",,"Seattle","WA",,,,,
"Madison Park Blogger","http://madisonparkblogger.blogspot.com/",,,,"blog","News, housing prices, Events",,,,,,"commercial",,,,"Madison Park","East","E",,"Seattle","WA",,,,,
"Madison Park Business Association","http://www.madisonparkseattle.com/",,,,"website","Business association",,,,,,"community",,,,"Madison Park","East","E",,"Seattle","WA",,,,,
"Miller Park Neighborhood Association","http://millerparkseattle.blogspot.com/",,,,"blog","Neighborhood association, News, Events",,,,,,"community",,,,"Miller Park","East","E",,"Seattle","WA",,,,,
"North Capitol Hill Neighborhood Association","http://www.nchna.com/",,,,"website","Meeting notes, relevant News",,,,,,"community",,,,"Capitol Hill","East","E",,"Seattle","WA",,,,,
"Seattle Central Community College","http://seattlecentral.edu/",,,,"website","College",,,,,,,,,,"Capitol Hill","East","E",,"Seattle","WA",,,,,
"Your Capitol Hill","http://www.yourcapitolhill.com/",,,,"website","Dining, Events, nightlife, Shopping",,,,,,"community",,,,"Capitol Hill","East","E",,"Seattle","WA",,,,,
"All About South Park","http://www.allaboutsouthpark.com/",,,,"website","Neighborhood info",,,,,,"community",,,,"South Park","Greater Duwamish","S",,"Seattle","WA",,,,,
"Beacon Hill Alliance of Neighbors","http://www.cityofseattle.net/ban/",,,,"website","Community, public safety",,,,,,"community",,,,"Beacon Hill","Greater Duwamish","SE",,"Seattle","WA",,,,,
"Beacon Hill Blog","http://beaconhill.seattle.wa.us/",,,,"blog","News, Events, Food, nightlife, Criminal activity, Crime, Public Safety",,,,,,"commercial",,,,"Beacon Hill","Greater Duwamish","SE",,"Seattle","WA",,,,,
"Beacon Hill Burglaries","http://maps.google.com/maps/ms?ie=UTF8&hl=en&msa=0&msid=107398592337461190820.000449fcf97ff8bfbe281&z=14or",,,,"email list","Criminal activity, Crime, Public Safety",,,,,,"community",,,,"Beacon Hill","Greater Duwamish","SE",,"Seattle","WA",,,,,
"Beacon Hill Community Site","http://beaconhillcommunity.wetpaint.com/",,,,"wiki","News, announcements, community concerns",,,,,,"commercial",,,,"Beacon Hill","Greater Duwamish","SE",,"Seattle","WA",,,,,
"Blogging Georgetown","http://www.blogginggeorgetown.com/",,,,"blog","News, Events, 911 blotter",,,,,,"commercial",,,,"Georgetown","Greater Duwamish","SW",,"Seattle","WA",,,,,
"Blogging Georgetown","http://www.facebook.com/blogginggeorgetown",,,,"facebook page","News, Events, 911 blotter",,,,,,"community",,,,"Georgetown","Greater Duwamish","SW",,"Seattle","WA",,,,,
"Georgetown Art Center","http://georgetownartcenter.blogspot.com/",,,,"blog","Community arts",,,,,,"community",,,,"Georgetown","Greater Duwamish","SW",,"Seattle","WA",,,,,
"Georgetown Neighborhood","http://www.georgetownneighborhood.com/",,,,"website","Community council",,,,,,"community",,,,"Georgetown","Greater Duwamish","SW",,"Seattle","WA",,,,,
"Georgetown Seattle","http://groups.yahoo.com/group/Georgetown-Seattle/",,,,"email list","Community members",,,,,,"community",,,,"Georgetown","Greater Duwamish","SW",,"Seattle","WA",,,,,
"Jefferson Park Alliance","http://www.cityofseattle.net/commnty/Beacon/groups/jpa/",,,,"website","Community",,,,,,"community",,,,"Beacon Hill","Greater Duwamish","SE",,"Seattle","WA",,,,,
"KOMO Communities - Beacon Hill","http://beaconhill.komoNews.com",,,,"blog","News, Events, Human interest, Criminal activity, Crime, Public Safety, Shopping",,,,,,"commercial",,,,"Beacon Hill","Greater Duwamish","SE",,"Seattle","WA",,,,,
"KOMO Communities - Georgetown","http://georgetown.komoNews.com",,,,"blog","News, Events, Human interest, Criminal activity, Crime, Public Safety, Shopping",,,,,,"commercial",,,,"Georgetown","Greater Duwamish","SW",,"Seattle","WA",,,,,
"Market On Wheels","http://marketonwheels.wordpress.com/",,,,"blog","Farmers' market",,,,,,"community",,,,"South Park","Greater Duwamish","S",,"Seattle","WA",,,,,
"nbeaconhillneighbors","http://groups.yahoo.com/group/nbeaconhillneighbors/",,,,"email list","Community members",,,,,,"community",,,,"Beacon Hill","Greater Duwamish","SE",,"Seattle","WA",,,,,
"North Beacon Hill","http://north-beacon-hill.blogspot.com/",,,,"blog","Community council",,,,,,"community",,,,"Beacon Hill","Greater Duwamish","SE",,"Seattle","WA",,,,,
"North Beacon Hill Council","http://www.cityofseattle.net/commnty/Beacon/groups/nbhc/",,,,"website","Community group",,,,,,"community",,,,"Beacon Hill","Greater Duwamish","SE",,"Seattle","WA",,,,,
"Seattle Industry","http://www.seattleindustry.org/",,,,"website","Seattle industry",,,,,,"community",,,,"Industrial District","Greater Duwamish","S",,"Seattle","WA",,,,,
"SoDo Business Association","http://www.sodobusinessassociation.org/",,,,"website","Business association",,,,,,"community",,,,"Industrial District","Greater Duwamish","S",,"Seattle","WA",,,,,
"South Park Seattle","http://www.myspace.com/southparkseattle",,,,"myspace","Neighborhood info",,,,,,"community",,,,"South Park","Greater Duwamish","S",,"Seattle","WA",,,,,
"yoursouthpark","http://groups.yahoo.com/group/yoursouthpark/",,,,"email list","Community members",,,,,,"community",,,,"South Park","Greater Duwamish","S",,"Seattle","WA",,,,,
"Cascade People's Center","http://www.cascadepeoplescenter.org/",,,,"website","Nonprofit",,,,,,"community",,,,"South Lake Union","Lake Union","W",,"Seattle","WA",,,,,
"Discover SLU","http://www.discoverslu.com",,,,"website","News, Events, Shopping, dining",,,,,,"commercial",,,,"South Lake Union","Lake Union","W",,"Seattle","WA",,,,,
"Discover SLU","http://www.facebook.com/discoverslu",,,,"facebook page","News, Events, Shopping, dining",,,,,,"commercial",,,,"South Lake Union","Lake Union","W",,"Seattle","WA",,,,,
"Discover SLU","http://www.twitter.com/southlakeunion",,,,"twitter","News, Events, Shopping, dining",,,,,,"commercial",,,,"South Lake Union","Lake Union","W",,"Seattle","WA",,,,,
"Eastlake Ave. ","http://eastlakeave.neighborlogs.com/",,,,"blog","News, traffic, Events, Criminal activity, Crime, Public Safety",,,,,,"commercial",,,,"Eastlake","Lake Union","W",,"Seattle","WA",,,,,
"Eastlake Ave. ","http://twitter.com/eastlakeave",,,,"blog","Updates on blog posts",,,,,,"commercial",,,,"Eastlake","Lake Union","W",,"Seattle","WA",,,,,
"Eastlake Community Council","http://www.eastlakeseattle.org/",,,,"website","Community council",,,,,,"community",,,,"Eastlake","Lake Union","W",,"Seattle","WA",,,,,
"Eastlake Community Council","http://www.facebook.com/group.php?gid=7145111961",,,,"facebook page","Community council",,,,,,"community",,,,"Eastlake","Lake Union","W",,"Seattle","WA",,,,,
"Fremont Arts Council","http://groups.yahoo.com/group/fremontartscouncil/",,,,"email list","Fremont arts council members, arts",,,,,,"community",,,,"Fremont","Lake Union","NW",,"Seattle","WA",,,,,
"Fremont Arts Council","http://www.fremontartscouncil.org/",,,,"website","Community group",,,,,,"community",,,,"Fremont","Lake Union","NW",,"Seattle","WA",,,,,
"Fremont Chamber of Commerce","http://www.fremontseattle.com/",,,,"website","Chamber of Commerce",,,,,,"community",,,,"Fremont","Lake Union","NW",,"Seattle","WA",,,,,
"Fremont Universe","http://twitter.com/fremontuniverse",,,,"twitter","News, Events, Food, reviews",,,,,,"commercial",,,,"Fremont","Lake Union","NW",,"Seattle","WA",,,,,
"Fremont Universe","http://www.facebook.com/pages/Fremont-Universe-Seattle/88279594341?ref=s",,,,"facebook page","News, Events, Food, reviews",,,,,,"commercial",,,,"Fremont","Lake Union","NW",,"Seattle","WA",,,,,
"Fremont Universe","http://www.fremontuniverse.com/",,,,"blog","News, Events, Food, reviews",,,,,,"commercial",,,,"Fremont","Lake Union","NW",,"Seattle","WA",,,,,
"Friends of Fremont Peak Park","http://www.fremontpeakpark.org/",,,,"website","Community organization",,,,,,"community",,,,"Fremont","Lake Union","NW",,"Seattle","WA",,,,,
"KOMO Communities - Fremont","http://fremont.komoNews.com",,,,"blog","News, Events, Human interest, Criminal activity, Crime, Public Safety, Shopping",,,,,,"commercial",,,,"Fremont","Lake Union","NW",,"Seattle","WA",,,,,
"KOMO Communities - South Lake Union","http://southlakeunion.komoNews.com",,,,"blog","News, Events, Human interest, Criminal activity, Crime, Public Safety, Shopping",,,,,,"commercial",,,,"South Lake Union","Lake Union","W",,"Seattle","WA",,,,,
"S Lake Union Friends and Neighbors Community Council","http://www.slufan.org/",,,,"website","Community council",,,,,,"community",,,,"South Lake Union","Lake Union","W",,"Seattle","WA",,,,,
"South Lake Union Chamber of Commerce","http://www.sluchamber.org/",,,,"website","Chamber of Commerce",,,,,,"community",,,,"South Lake Union","Lake Union","W",,"Seattle","WA",,,,,
"The South Lake Union Community Blog","http://www.thesouthlake.com/",,,,"blog","News, Events, personalized profile pages",,,,,,"commercial",,,,"South Lake Union","Lake Union","W",,"Seattle","WA",,,,,
"Friends of Discovery Park","http://www.friendsdiscoverypark.org/",,,,"website","Park issues",,,,,,"community",,,,"Magnolia","Magnolia/Queen Anne","W",,"Seattle","WA",,,,,
"Interbay District Blog","http://www.interbaydistrict.com/",,,,"blog","News, sports",,,,,,"community",,,,"Interbay","Magnolia/Queen Anne","NW",,"Seattle","WA",,,,,
"Interbay Neighborhood Association","http://www.our-interbay.org/",,,,"website","Neighborhood association",,,,,,"community",,,,"Interbay","Magnolia/Queen Anne","NW",,"Seattle","WA",,,,,
"KOMO Communities - Magnolia","http://magnolia.komoNews.com",,,,"blog","News, Events, Human interest, Criminal activity, Crime, Public Safety, Shopping",,,,,,"commercial",,,,"Magnolia","Magnolia/Queen Anne","NW",,"Seattle","WA",,,,,
"KOMO Communities - Queen Anne","http://queenanne.komoNews.com",,,,"blog","News, Events, Human interest, Criminal activity, Crime, Public Safety, Shopping",,,,,,"commercial",,,,"Queen Anne","Magnolia/Queen Anne","W",,"Seattle","WA",,,,,
"Magnolia Action Group","http://www.orgsites.com/wa/mag/",,,,"website","Planning issues",,,,,,"community",,,,"Magnolia","Magnolia/Queen Anne","W",,"Seattle","WA",,,,,
"Magnolia Chamber of Commerce","http://www.magnoliachamber.org/",,,,"website","Chamber of Commerce",,,,,,"community",,,,"Magnolia","Magnolia/Queen Anne","W",,"Seattle","WA",,,,,
"Magnolia Historical Society","http://www.magnoliahistoricalsociety.org/",,,,"website","Historical society",,,,,,"community",,,,"Magnolia","Magnolia/Queen Anne","W",,"Seattle","WA",,,,,
"Magnolia is Really Part of Seattle","http://sleeplessinmagnolia.ning.com/",,,,"wiki","Planning issues",,,,,,"community",,,,"Magnolia","Magnolia/Queen Anne","W",,"Seattle","WA",,,,,
"Magnolia Neighborhood Planning Council","http://magnolianpc.com/",,,,"website","Neighborhood association",,,,,,"community",,,,"Magnolia","Magnolia/Queen Anne","W",,"Seattle","WA",,,,,
"Magnolia Voice","http://twitter.com/magnoliavoice",,,,"twitter","News, Events, Criminal activity, Crime, Public Safety, Food",,,,,,"commercial",,,,"Magnolia","Magnolia/Queen Anne","NW",,"Seattle","WA",,,,,
"Magnolia Voice","http://www.facebook.com/pages/Magnolia-Voice-Seattle/116057104388",,,,"facebook page","News, Events, Criminal activity, Crime, Public Safety, Food",,,,,,"commercial",,,,"Magnolia","Magnolia/Queen Anne","NW",,"Seattle","WA",,,,,
"Magnolia Voice","http://www.magnoliavoice.com/",,,,"blog","News, Events, Criminal activity, Crime, Public Safety, Food",,,,,,"commercial",,,,"Magnolia","Magnolia/Queen Anne","W",,"Seattle","WA",,,,,
"Queen Anne Chamber of Commerce","http://qachamber.org/",,,,"website","Chamber of Commerce",,,,,,"community",,,,"Queen Anne","Magnolia/Queen Anne","W",,"Seattle","WA",,,,,
"Queen Anne Community Council","http://www.qacc.net/",,,,"website","Community council",,,,,,"community",,,,"Queen Anne","Magnolia/Queen Anne","W",,"Seattle","WA",,,,,
"Queen Anne Examiner","http://www.examiner.com/x-8856-Seattle-Queen-Anne-Hill-Examiner",,,,"blog","News, local issues",,,,,,"commercial",,,,"Queen Anne","Magnolia/Queen Anne","W",,"Seattle","WA",,,,,
"Queen Anne Helpline","http://queenannehelpline.org/index.php",,,,"website","Nonprofit",,,,,,"community",,,,"Queen Anne","Magnolia/Queen Anne","W",,"Seattle","WA",,,,,
"Queen Anne Historical Society","http://www.qahistory.org/",,,,"website","Historical society",,,,,,"community",,,,"Queen Anne","Magnolia/Queen Anne","W",,"Seattle","WA",,,,,
"Queen Anne View","http://www.queenanneview.com/",,,,"blog","News, Events, reviews",,,,,,"commercial",,,,"Queen Anne","Magnolia/Queen Anne","W",,"Seattle","WA",,,,,
"Rosiehood","http://twitter.com/Roosiehood",,,,"twitter","News, Events, Human interest, Criminal activity, Crime, Public Safety",,,,,,"community",,,,"Roosevelt","NE","NE",,"Seattle","WA",,,,,
"Rosiehood","http://www.facebook.com/pages/Roosevelt-Neighborhood-Blog/133948283288085",,,,"facebook page","News, Events, Human interest, Criminal activity, Crime, Public Safety",,,,,,"community",,,,"Roosevelt","NE","NE",,"Seattle","WA",,,,,
"Rosiehood","http://www.roosiehood.com/",,,,"blog","News, Events, Human interest, Criminal activity, Crime, Public Safety",,,,,,"community",,,,"Roosevelt","NE","NE",,"Seattle","WA",,,,,
"Haller Lake Community Club","http://www.hallerlake.info/welcome.html",,,,"website","Community organization",,,,,,"community",,,,"Haller Lake","North","N",,"Seattle","WA",,,,,
"KOMO Communities - Lake City","http://lakecity.komoNews.com",,,,"blog","News, Events, Human interest, Criminal activity, Crime, Public Safety, Shopping",,,,,,"commercial",,,,"Lake City","North","NE",,"Seattle","WA",,,,,
"KOMO Communities - North Seattle","http://northseattle.komoNews.com",,,,"blog","News, Events, Human interest, Criminal activity, Crime, Public Safety, Shopping",,,,,,"commercial",,,,"North Seattle","North","N",,"Seattle","WA",,,,,
"Lake City Live","http://www.lakecitylive.net/",,,,"blog","News, Criminal activity, Crime, Public Safety, Food, Drink, reviews",,,,,,"commercial",,,,"Lake City","North","NE",,"Seattle","WA",,,,,
"Maple Leaf Life","http://twitter.com/mapleleaflife",,,,"twitter","News, Events, Human interest, Criminal activity, Crime, Public Safety, Shopping",,,,,,"commercial",,,,"Maple Leaf","North","N ",,"Seattle","WA",,,,,
"Maple Leaf Life","http://www.facebook.com/pages/Seattle-WA/Maple-Leaf-Life/298056021657",,,,"facebook page","News, Events, Human interest, Criminal activity, Crime, Public Safety, Shopping",,,,,,"commercial",,,,"Maple Leaf","North","N",,"Seattle","WA",,,,,
"Maple Leaf Life","http://www.mapleleaflife.com/",,,,"blog","News, Events, Human interest, Criminal activity, Crime, Public Safety, Shopping",,,,,,"commercial",,,,"Maple Leaf","North","N",,"Seattle","WA",,,,,
"Northgate Chamber of Commerce","http://www.northgatechamber.com/",,,,"website","Chamber of Commerce",,,,,,"community",,,,"Northgate","North","NE",,"Seattle","WA",,,,,
"Pinehurst Seattle","http://pinehurstseattle.org",,,,"blog","News, Events, issues",,,,,,"community",,,,"Pinehurst","North","NE",,"Seattle","WA",,,,,
"Pinehurst Seattle","http://twitter.com/pinehurstsea",,,,"twitter","News, Events, issues",,,,,,"community",,,,"Pinehurst","North","NE",,"Seattle","WA",,,,,
"Pinehurst Seattle","http://www.facebook.com/#!/group.php?gid=53590206898&v=wall&ref=search",,,,"facebook page","News, Events, issues",,,,,,"community",,,,"Pinehurst","North","NE",,"Seattle","WA",,,,,
"The Maple Leafer","http://twitter.com/themapleleafer",,,,"twitter","News, Events, Human interest, Criminal activity, Crime, Public Safety, Shopping",,,,,,"commercial",,,,"Maple Leaf","North","N",,"Seattle","WA",,,,,
"The Maple Leafer","http://www.facebook.com/pages/The-Maple-Leafer/110782042284727",,,,"facebook page","News, Events, Human interest, Criminal activity, Crime, Public Safety, Shopping",,,,,,"commercial",,,,"Maple Leaf","North","N",,"Seattle","WA",,,,,
"The Maple Leafer","http://www.themapleleafer.com/",,,,"blog","News, Events, Human interest, Criminal activity, Crime, Public Safety, Shopping",,,,,,"commercial",,,,"Maple Leaf","North","N",,"Seattle","WA",,,,,
"Aurora Seattle","http://www.auroraseattle.com/",,,,"blog","News, traffic, planning",,,,,,"community",,,,"Regional Sites","Northeast","NE",,"Seattle","WA",,,,,
"Hawthorne Hills Community Website","http://www.seattle.gov/hawthornehills/index.htm",,,,"website","Community council",,,,,,"community",,,,"Hawthorne Hills","Northeast","NE",,"Seattle","WA",,,,,
"KOMO Communities - U-District","http://udistrict.komoNews.com",,,,"blog","News, Events, Human interest, Criminal activity, Crime, Public Safety, Shopping",,,,,,"commercial",,,,"University District","Northeast","NE",,"Seattle","WA",,,,,
"KOMO Communities - View Ridge","http://viewridge.komoNews.com",,,,"blog","News, Events, Human interest, Criminal activity, Crime, Public Safety, Shopping",,,,,,"commercial",,,,"View Ridge","Northeast","NE",,"Seattle","WA",,,,,
"Laurelhurst Community Club","http://www.laurelhurstcc.com/",,,,"website","Community club",,,,,,"community",,,,"Laurelhurst","Northeast","NE",,"Seattle","WA",,,,,
"Magnuson Community Garden","http://cityofseattle.net/MAGNUSONGARDEN",,,,"website","Garden",,,,,,,,,,"Laurelhurst","Northeast","NE",,"Seattle","WA",,,,,
"Magnuson Environmental Stewardship Alliance","http://mesaseattle.org/",,,,"website","Park issues",,,,,,"community",,,,"Laurelhurst","Northeast","NE",,"Seattle","WA",,,,,
"Maple Leaf Community Council","http://www.mapleleafcommunity.org/",,,,"website","Community council, email list available",,,,,,"community",,,,"Maple Leaf","Northeast","NE",,"Seattle","WA",,,,,
"Ravenna Blog","http://twitter.com/ravennablog",,,,"twitter","News, Events, Human interest, Criminal activity, Crime, Public Safety, Food, Shopping",,,,,,"community",,,,"Ravenna","Northeast","NE",,"Seattle","WA",,,,,
"Ravenna Blog","http://www.facebook.com/pages/Ravenna-Blog/116280421718247",,,,"facebook page","News, Events, Human interest, Criminal activity, Crime, Public Safety, Food, Shopping",,,,,,"community",,,,"Ravenna","Northeast","NE",,"Seattle","WA",,,,,
"Ravenna Blog","http://www.ravennablog.com/",,,,"blog","News, Events, Human interest, Criminal activity, Crime, Public Safety, Food, Shopping",,,,,,"community",,,,"Ravenna","Northeast","NE",,"Seattle","WA",,,,,
"Ravenna-Bryant Community Association","http://www.facebook.com/pages/Ravenna-Bryant-Community-Association/153638664651035",,,,"facebook page","Community association",,,,,,"community",,,,"Ravenna","Northeast","NE",,"Seattle","WA",,,,,
"Ravenna-Bryant Community Association","http://www.ravennabryant.org/",,,,"website","Community association",,,,,,"community ",,,,"Ravenna","Northeast","NE",,"Seattle","WA",,,,,
"Roosevelt Neighborhood Association","http://rooseveltseattle.org/default.aspx",,,,"website","Neighborhood association",,,,,,"community",,,,"Roosevelt","Northeast","NE",,"Seattle","WA",,,,,
"Roosevelt Neighborhood Association","http://www.facebook.com/group.php?gid=178766520060",,,,"facebook page","Neighborhood association",,,,,,"community",,,,"Roosevelt","Northeast","NE",,"Seattle","WA",,,,,
"Roosevelt Neighbors' Alliance","http://www.rooseveltneighborsalliance.org/main/Roosevelt_Neighbors_Alliance.html",,,,"website","Neighborhood association",,,,,,"community",,,,"Roosevelt","Northeast","NE",,"Seattle","WA",,,,,
"Roosevelt Seattle","http://twitter.com/roosieseattle",,,,"twitter","News, Events",,,,,,"community",,,,"Roosevelt","Northeast","NE",,"Seattle","WA",,,,,
"Sustainable Northeast Seattle","http://sustainableneseattle.ning.com/",,,,"ning","Community group",,,,,,"community",,,,"Wedgwood, Laurelhurst, Ravenna, Roosevelt","Northeast","NE",,"Seattle","WA",,,,,
"The Laurelhurst Blog","http://thelaurelhurstblog.blogspot.com/",,,,"blog","News, Events",,,,,,"community",,,,"Laurelhurst","Northeast","NE",,"Seattle","WA",,,,,
"The Wedgwood Blog","http://wedgwoodblog.spaces.live.com/default.aspx",,,,"blog","News, Events",,,,,,"commercial",,,,"Wedgwood","Northeast","NE",,"Seattle","WA",,,,,
"Thornton Creek Alliance","http://www.scn.org/tca/",,,,"website","Community group",,,,,,,,,,"Thornton Creek","Northeast","NE",,"Seattle","WA",,,,,
"U District Daily","http://www.udistrictdaily.com/",,,,"blog","News, Events, Human interest, Criminal activity, Crime, Public Safety, Shopping",,,,,,"commercial",,,,"University District","Northeast","NE",,"Seattle","WA",,,,,
"University District Business Improvement Area","http://www.udistrictchamber.org/UDBIA/index.html",,,,"website","Business association",,,,,,"community",,,,"University District","Northeast","NE",,"Seattle","WA",,,,,
"University District Food Bank","http://www.facebook.com/pages/Seattle-WA/University-District-Food-Bank/47523824407",,,,"facebook page","Food bank",,,,,,"community",,,,"University District","Northeast","NE",,"Seattle","WA",,,,,
"University District Food Bank","http://www.udistrictFoodbank.org/",,,,"website","Food bank",,,,,,"community",,,,"University District","Northeast","NE",,"Seattle","WA",,,,,
"University District Seattle","http://www.udistrictchamber.org/GUCC/GUCC.html",,,,"website","Chamber of Commerce",,,,,,"community",,,,"University District","Northeast","NE",,"Seattle","WA",,,,,
"University District Service Fund","http://www.udistrictchamber.org/udistrictservicefund/index.html",,,,"website","Nonprofit",,,,,,"community",,,,"University District","Northeast","NE",,"Seattle","WA",,,,,
"Wedgwood Block Watch","http://www.wedgwoodcc.org/wwbw/",,,,"website","Block watch",,,,,,"community",,,,"Wedgwood","Northeast","NE",,"Seattle","WA",,,,,
"Wedgwood Community Council","http://www.wedgwoodcc.org/",,,,"website","Community council",,,,,,"community",,,,"Wedgwood","Northeast","NE",,"Seattle","WA",,,,,
"Wedgwood Community Council","http://www.facebook.com/pages/Wedgwood-Community-Council/146730522040662",,,,"facebook page","Community council",,,,,,"community",,,,"Wedgwood","Northeast","NE",,"Seattle","WA",,,,,
"Wedgwood View","http://twitter.com/wedgwoodview",,,,"twitter","News, Events, Human interest, Criminal activity, Crime, Public Safety, Shopping",,,,,,"commercial",,,,"Wedgwood","Northeast","NE",,"Seattle","WA",,,,,
"Wedgwood View","http://www.facebook.com/pages/Wedgwood-View/331236446338",,,,"facebook page","News, Events, Human interest, Criminal activity, Crime, Public Safety, Shopping",,,,,,"commercial",,,,"Wedgwood","Northeast","NE",,"Seattle","WA",,,,,
"Wedgwood View","http://www.wedgwoodview.com/",,,,"blog","News, Events, Human interest, Criminal activity, Crime, Public Safety, Shopping",,,,,,"commercial",,,,"Wedgwood","Northeast","NE",,"Seattle","WA",,,,,
"Blue Ridge Club","http://www.blueridgeseattle.com/index.php",,,,"website","Homeowners club",,,,,,"community",,,,"Blue Ridge","Northwest",,,"Seattle","WA",,,,,
"Broadview Community Council","http://groups.google.com/group/broadview-community-council",,,,"email list","Community council",,,,,,"community",,,,"Broadview","Northwest","SW",,"Seattle","WA",,,,,
"Broadview Community Council","http://www.broadviewseattle.org/",,,,"blog","Community council",,,,,,"community",,,,"Broadview","Northwest","NW",,"Seattle","WA",,,,,
"Friends of Green Lake","http://www.friendsofgreenlake.org/",,,,"website","Neighborhood group",,,,,,"community",,,,"Green Lake","Northwest","NW",,"Seattle","WA",,,,,
"Greater Greenwood Bi-Ped Safety Coalition","http://bipedsafety.org/",,,,"website","Community group",,,,,,"community",,,,"Greenwood","Northwest","NW",,"Seattle","WA",,,,,
"Greenlake Community Council","http://www.greenlakecommunitycouncil.org/",,,,"website","Community council",,,,,,"community",,,,"Green Lake","Northwest","NW",,"Seattle","WA",,,,,
"Greenlake Community Wiki","http://greenlake.wetpaint.com/",,,,"wiki","Events, for sale, services",,,,,,"community",,,,"Green Lake","Northwest","NW",,"Seattle","WA",,,,,
"Greenwood Aurora Involved Neighbors","http://www.gainseattle.com/",,,,"website","Neighborhood association",,,,,,"community",,,,"Greenwood","Northwest","NW",,"Seattle","WA",,,,,
"Greenwood Blog","http://www.greenwoodblog.com/",,,,"blog","News, Events",,,,,,"commercial",,,,"Greenwood","Northwest","NW",,"Seattle","WA",,,,,
"Greenwood Community Council","http://www.greenwoodcommunitycouncil.org/about/",,,,"website","Community council",,,,,,"community",,,,"Greenwood","Northwest","NW",,"Seattle","WA",,,,,
"Greenwood Community Council Announcements","http://groups.yahoo.com/group/Greenwood_News/",,,,"email list","Community council",,,,,,"community",,,,"Greenwood","Northwest","NW",,"Seattle","WA",,,,,
"Greenwood Community Council Discussion","http://groups.yahoo.com/group/greenwood-discussion/",,,,"email list","Community council",,,,,,"community",,,,"Greenwood","Northwest","NW",,"Seattle","WA",,,,,
"Greenwood Phinney Chamber of Commerce","http://www.greenwood-phinney.com/",,,,"website","Chamber of Commerce",,,,,,"community",,,,"Greenwood","Northwest","NW",,"Seattle","WA",,,,,
"KOMO Communities - Ballard","http://ballard.komoNews.com/",,,,"blog","News, Events, Human interest, Criminal activity, Crime, Public Safety, Shopping",,,,,,"commercial",,,,"Ballard","Northwest","NW",,"Seattle","WA",,,,,
"KOMO Communities - Green Lake","http://greenlake.komoNews.com",,,,"blog","News, Events, Human interest, Criminal activity, Crime, Public Safety, Shopping",,,,,,"commercial",,,,"Green Lake","Northwest","NW",,"Seattle","WA",,,,,
"KOMO Communities - Greenwood-Phinney","http://greenwood-phinney.komoNews.com",,,,"blog","News, Events, Human interest, Criminal activity, Crime, Public Safety, Shopping",,,,,,"commercial",,,,"Greenwood-Phinney","Northwest","NW",,"Seattle","WA",,,,,
"KOMO Communities - Wallingford","http://wallingford.komoNews.com",,,,"blog","News, Events, Human interest, Criminal activity, Crime, Public Safety, Shopping",,,,,,"commercial",,,,"Wallingford","Northwest","NW",,"Seattle","WA",,,,,
"Licton Springs Neighborhood ","http://www.lictonsprings.org/",,,,"website","Neighborhood council",,,,,,"community",,,,"Licton Springs","Northwest","NW",,"Seattle","WA",,,,,
"My Greenlake Blog","http://www.mygreenlake.com/",,,,"blog","News, Events, Food",,,,,,"commercial",,,,"Green Lake","Northwest","NW",,"Seattle","WA",,,,,
"MyWallingford","http://mywallingford.com",,,,"blog","News, Events, Human interest, Criminal activity, Crime, Public Safety, Shopping",,,,,,"commercial",,,,"Wallingford","Northwest","NW",,"Seattle","WA",,,,,
"MyWallingford","http://twitter.com/mywallingford",,,,"twitter","News, Events, Human interest, Criminal activity, Crime, Public Safety, Shopping",,,,,,"commercial",,,,"Wallingford","Northwest","NW",,"Seattle","WA",,,,,
"MyWallingford","http://www.facebook.com/MyWallingford?ref=ts",,,,"facebook page","News, Events, Human interest, Criminal activity, Crime, Public Safety, Shopping",,,,,,"commercial",,,,"Wallingford","Northwest","NW",,"Seattle","WA",,,,,
"Northwest District Council","http://www.nwdistrictcouncil.org/",,,,"website","District council",,,,,,"community",,,,"Northwest","Northwest","NW",,"Seattle","WA",,,,,
"Phinney Neighborhood Association","http://phinneycenter.blogspot.com/",,,,"blog","Association News and Events",,,,,,"community",,,,"Phinney Ridge","Northwest","NW",,"Seattle","WA",,,,,
"Phinney Neighborhood Association","http://www.facebook.com/group.php?gid=42314991794",,,,"facebook page","Neighborhood association",,,,,,"community",,,,"Phinney Ridge","Northwest","NW",,"Seattle","WA",,,,,
"Phinney Neighborhood Association","http://www.phinneycenter.org/",,,,"website","Neighborhood association",,,,,,"community",,,,"Phinney Ridge","Northwest","NW",,"Seattle","WA",,,,,
"Phinney Ridge Ecovillage","http://www.phinneyecovillage.net/",,,,"website","Community group",,,,,,"community",,,,"Phinney Ridge","Northwest","NW",,"Seattle","WA",,,,,
"PhinneyWood","http://www.phinneywood.com/",,,,"blog","News, Events, Food, Shopping",,,,,,"commercial",,,,"Phinney Ridge","Northwest","NW",,"Seattle","WA",,,,,
"Solid Ground","http://www.facebook.com/pages/Solid-Ground/20665239656",,,,"facebook page","Nonprofit",,,,,,"community",,,,"Wallingford","Northwest","NW",,"Seattle","WA",,,,,
"Solid Ground","http://www.solid-ground.org/Pages/Default.aspx",,,,"website","Nonprofit",,,,,,"community",,,,"Wallingford","Northwest","NW",,"Seattle","WA",,,,,
"Sustainable Greenwood/Phinney","http://web.me.com/annecann1/iWeb/Site/Home.html",,,,"website","Sustainability",,,,,,"community",,,,"Phinney Ridge","Northwest","NW",,"Seattle","WA",,,,,
"Vision Greenwood Park Seattle","http://www.facebook.com/pages/Vision-Greenwood-Park-Seattle/165995713450762",,,,"facebook page","Park issues, Events, neighborhood issues, neighborhood planning",,,,,,"community",,,,"Greenwood","Northwest","NW",,"Seattle","WA",,,,,
"Wallingford Chamber of Commerce","http://wallingfordchamber.org/",,,,"website","Chamber of Commerce",,,,,,"community",,,,"Wallingford","Northwest","NW",,"Seattle","WA",,,,,
"Wallingford Community Council","http://council.iactivesite.com/",,,,"website","Community council",,,,,,"community",,,,"Wallingford","Northwest","NW",,"Seattle","WA",,,,,
"Wallingford Seattle Blog","http://twitter.com/wallingford",,,,"twitter","News, Events, advice",,,,,,"community",,,,"Wallingford","Northwest","NW",,"Seattle","WA",,,,,
"Wallingford Seattle Blog","http://wallingfordseattle.tumblr.com/",,,,"blog","News, Events, advice",,,,,,"community",,,,"Wallingford","Northwest","NW",,"Seattle","WA",,,,,
"Wallingford.org","http://www.wallingford.org/",,,,"website","Neighborhood group",,,,,,"community",,,,"Wallingford","Northwest","NW",,"Seattle","WA",,,,,
"Wallyhood - Wallingford Seattle Blog","http://twitter.com/wallyhood",,,,"twitter","News, Events",,,,,,"commercial",,,,"Wallingford","Northwest","NW ",,"Seattle","WA",,,,,
"Wallyhood - Wallingford Seattle Blog","http://www.wallyhood.org/",,,,"blog","News, Events",,,,,,"commercial",,,,"Wallingford","Northwest","NW",,"Seattle","WA",,,,,
"Bike Works!","http://www.bikeworks.org/",,,,"website","Community group",,,,,,,,,,"Columbia City","Southeast","SE",,"Seattle","WA",,,,,
"Columbia Citizens","http://columbiacitizens.net/",,,,"wiki","Neighborhood community site, buying, selling, restaurants, favorite places",,,,,,"community",,,,"Columbia City","Southeast","SE",,"Seattle","WA",,,,,
"Columbia Citizens","http://twitter.com/CCitizens",,,,"twitter","Twitter, columbia citizens",,,,,,"community",,,,"Columbia City","Southeast","SE",,"Seattle","WA",,,,,
"Columbia Citizens","http://www.facebook.com/pages/Columbia-Citizens/48558627705",,,,"facebook page","Neighborhood community site, buying, selling, restaurants, favorite places",,,,,,"community",,,,"Columbia City","Southeast","SE",,"Seattle","WA",,,,,
"Columbia City Blog","http://www.columbiacityblog.com/",,,,"blog","News, Events, Food, Shopping",,,,,,"commercial",,,,"Columbia City","Southeast","SE",,"Seattle","WA",,,,,
"Columbia City, Seattle","http://www.columbiacityseattle.com/",,,,"website","Business association",,,,,,"community",,,,"Columbia City","Southeast","SE",,"Seattle","WA",,,,,
"Columbia City: Rainier Valley","http://www.rainiervalley.org/",,,,"website","Portal",,,,,,"community",,,,"Rainier Valley","Southeast","SE",,"Seattle","WA",,,,,
"Friends of Seward Park","http://www.sewardpark.org/",,,,"website","Park issues",,,,,,"community",,,,"Seward Park","Southeast","SE",,"Seattle","WA",,,,,
"Hillman City Neighborhood Alliance","http://www.hillmancity.org/",,,,"website","Neighborhood alliance",,,,,,,,,,"Hillman City","Southeast","SE",,"Seattle","WA",,,,,
"KOMO Communities - Columbia City","http://columbiacity.komoNews.com",,,,"blog","News, Events, Human interest, Criminal activity, Crime, Public Safety, Shopping",,,,,,"commercial",,,,"Columbia City","Southeast","SE",,"Seattle","WA",,,,,
"KOMO Communities - Rainier Valley","http://rainiervalley.komoNews.com",,,,"blog","News, Events, Human interest, Criminal activity, Crime, Public Safety, Food, Shopping",,,,,,"commercial",,,,"Rainier Valley","Southeast","SE",,"Seattle","WA",,,,,
"MLK Business Association","http://www.mlkba.org/",,,,"website","Business association",,,,,,"community",,,,"Rainier Valley","Southeast","SE",,"Seattle","WA",,,,,
"Mount Baker Community Club","http://groups.yahoo.com/group/MBCCCommunityNotices/",,,,"email list","Community club",,,,,,,,,,"Mount Baker","Southeast","SE",,"Seattle","WA",,,,,
"Mount Baker Neighborhood ","http://www.mountbaker.org/index.php",,,,"website","Community group",,,,,,"community",,,,"Mount Baker","Southeast","SE",,"Seattle","WA",,,,,
"New Holly Neighborhood Campus","http://www.newholly.org/",,,,"website","Services portal",,,,,,"community",,,,"Rainier Valley","Southeast","SE",,"Seattle","WA",,,,,
"New Rainier Vista","http://newrainiervista.com/public/about/",,,,"blog","News, Events, Human interest, Criminal activity, Crime, Public Safety, Shopping",,,,,,"community",,,,"Rainier Beach","Southeast","SE",,"Seattle","WA",,,,,
"Othello Neighborhood Association","http://othello.talkspot.com/",,,,"website","Neighborhood association",,,,,,"community",,,,"Othello","Southeast","SE",,"Seattle","WA",,,,,
"Rainier Beach Community Empowerment Coalition","http://twitter.com/rainierbeach",,,,"twitter","News, Events, issues",,,,,,"community",,,,"Rainier Beach","Southeast","SE",,"Seattle","WA",,,,,
"Rainier Beach Community Empowerment Coalition","http://www.rbcoalition.org/",,,,"blog","News, Events, issues",,,,,,"community",,,,"Rainier Beach","Southeast","SE",,"Seattle","WA",,,,,
"Rainier Valley Historical Society","http://www.rainiervalleyhistory.org/",,,,"website","Historical society",,,,,,"community",,,,"Rainier Valley","Southeast","SE",,"Seattle","WA",,,,,
"Rainier Valley Post","http://www.rainiervalleypost.com/",,,,"blog","News, Events, 911 blotter, Food, reviews",,,,,,"commercial",,,,"Rainier Valley","Southeast","SE",,"Seattle","WA",,,,,
"Seattle's Othello Neighborhood","http://othelloneighborhood.org/default.aspx",,,,"website","Shared community group website",,,,,,"community",,,,"Othello","Southeast","SE",,"Seattle","WA",,,,,
"Southeast District Council","http://sedcseattle.wordpress.com/",,,,"blog","District council",,,,,,"community",,,,"Rainier Valley, Columbia City, Hillman City, Othello, Rainier Beach, Mount Baker","Southeast","SE",,"Seattle","WA",,,,,
"Southend Seattle","http://southendseattle.com",,,,"blog","News, Events, Human interest",,,,,,"community",,,,"Beacon Hill, Mount Baker, Genesee, Georgetown, Columbia City, Hillman City, Lakewood-Seward Park, Rainier Beach, Bryn Mawr- Skyway, Lakeridge, South Park, Allentown","Southeast, Greater Duwamish","SE, SW",,"Seattle","WA",,,,,
"Admiral Neighborhood Association","http://groups.yahoo.com/group/AdmiralNeighborhood/",,,,"email list","Neighborhood association",,,,,,"community",,,,"Admiral (West Seattle)","Southwest","SW",,"Seattle","WA",,,,,
"Alki News","http://groups.yahoo.com/group/alkibeachcommunity/",,,,"email list","Community councl, alki community council, residents, alki beach neighborhood",,,,,,"community",,,,"Alki","Southwest","SW",,"Seattle","WA",,,,,
"Alki News/Alki Community Council","http://alkiNews.wordpress.com/",,,,"blog","News, council meetings",,,,,,"community",,,,"Alki","Southwest","SW",,"Seattle","WA",,,,,
"ArtsWest","http://www.artswest.org/?q=node/28",,,,"website","Arts",,,,,,"community",,,,"West Seattle","Southwest","SW",,"Seattle","WA",,,,,
"Beach Drive Blog","http://www.mortgageporter.com/beach_drive/",,,,"blog","News, home sales, crime",,,,,,"commercial",,,,"Alki","Southwest","SW",,"Seattle","WA",,,,,
"Fauntleroy Community Association","http://fauntleroy.net/",,,,"website","Community association",,,,,,"community",,,,"Fauntleroy","Southwest","SW",,"Seattle","WA",,,,,
"Fauntleroy Community Association","http://www.facebook.com/pages/Seattle-WA/Fauntleroy-Community-Association/63181596775?v=wall&viewas=1779772562&ref=ts",,,,"facebook page","Community association",,,,,,"community",,,,"Fauntleroy","Southwest","SW",,"Seattle","WA",,,,,
"Genesee-Schmitz Neighborhood Council","http://genesee-schmitz.org/",,,,"blog","Neighborhood council",,,,,,"community",,,,"Genesee-Schmitz","Southwest","SW",,"Seattle","WA",,,,,
"Junction Neighborhood Organization","http://www.wsjuno.com/",,,,"blog","Events, meetings",,,,,,"community",,,,"Junction","Southwest","W",,"Seattle","WA",,,,,
"KOMO Communities - West Seattle","http://westseattle.komoNews.com",,,,"blog","News, Events, Human interest, Criminal activity, Crime, Public Safety, Shopping",,,,,,"commercial",,,,"West Seattle","Southwest","SW",,"Seattle","WA",,,,,
"Morgan Junction Community Association","http://morganjunction.org/",,,,"website","Community association",,,,,,"community",,,,"Morgan Junction","Southwest","SW",,"Seattle","WA",,,,,
"Official Website of the High Point Neighborhood","http://www.highpointneighborhood.org/",,,,"website","Neighborhood association",,,,,,"community",,,,"High Point","Southwest","SW",,"Seattle","WA",,,,,
"Senior Center West Seattle","http://www.sc-ws.org/julaug09/",,,,"website","Senior center",,,,,,"community",,,,"West Seattle","Southwest","SW",,"Seattle","WA",,,,,
"Senior Services","http://www.seniorservices.org/",,,,"website","Senior services",,,,,,"community",,,,"West Seattle","Southwest","SW",,"Seattle","WA",,,,,
"The Junction: Downtown West Seattle","http://www.wsjunction.com/",,,,"website","Neighborhood association",,,,,,"community",,,,"Junction","Southwest","W",,"Seattle","WA",,,,,
"West Seattle Chamber of Commerce","http://www.wschamber.com/",,,,"website","Chamber of Commerce",,,,,,"community",,,,"West Seattle","Southwest","SW",,"Seattle","WA",,,,,
"White Center Technology Programs","http://technology.program.googlepages.com/",,,,"website","Tech resources",,,,,,"community",,,,"White Center","Southwest","SW",,"Seattle","WA",,,,,
"Sustainable West Seattle","http://www.sustainablewestseattle.org/",,,,"blog","Events, issues, Food, neighborhood planning",,,,,,"community",,,,"West Seattle","Southwest, Delridge","SW",,"Seattle","WA",,,,,
"West Seattle Blog","http://twitter.com/westseattleblog",,,,"twitter","News, Events, Human interest",,,,,,"commercial",,,,"West Seattle","Southwest, Delridge","SW",,"Seattle","WA",,,,,
"West Seattle Blog","http://westseattleblog.com/",,,,"blog","News, Events, Human interest",,,,,,"commercial",,,,"West Seattle","Southwest, Delridge","SW",,"Seattle","WA",,,,,
"West Seattle Blog","http://www.facebook.com/westseattleblog",,,,"facebook page","Profile page, west seattle blog",,,,,,"commercial",,,,"West Seattle","Southwest, Delridge","SW",,"Seattle","WA",,,,,
"West Seattle Herald","http://twitter.com/westseattleher",,,,"twitter","Online Newspaper",,,,,,"commercial",,,,"West Seattle","Southwest, Delridge","SW",,"Seattle","WA",,,,,
"West Seattle Herald","http://www.facebook.com/wsherald",,,,"facebook page","Online Newspaper",,,,,,"commercial",,,,"West Seattle","Southwest, Delridge","SW",,"Seattle","WA",,,,,
"West Seattle Herald","http://www.westseattleherald.com/",,,,"website","Online Newspaper",,,,,,"commercial",,,,"West Seattle","Southwest, Delridge","SW",,"Seattle","WA",,,,,
