name,url,calendar_url,email,contact,type_group,categories,description,notes,source,activity_level,audience_size,ownership,image,location,address,neighborhood,district,region,city,state,area_code,latitude,longitude,location_geo
14th Ave NW Visioning Project,http://www.14avenw.org/,http://www.example2.com/calendar,email@example.com,Contact Name,website,road development,This is description,This is notes,This is source,Multiple Daily,"1,000-10,000",community,http://example.com/image.jpg,This is location,This is address,Ballard,Ballard,NW,Seattle,WA,510,55,-122,(55 -122)
At Large in Ballard,http://blog.seattlepi.com/ballard/,,,,blog,"news, human interest",,,,,,commercial,,,,Ballard,Ballard,NW,Seattle,WA
Ballard Avenue,http://www.ballardavenue.blogspot.com/,,,,blog,personal ballard-centric blog,,,,,,community,,,,Ballard,Ballard,NW,Seattle,WA
Ballard Blog,http://ballardblog.com/,,,,blog,"news, events, human interest, criminal activity, shopping",,,,,,commercial,,,,Ballard,Ballard,NW,Seattle,WA
Ballard Chamber of Commerce,http://www.ballardchamber.com/,,,,website,chamber of commerce,,,,,,community,,,,Ballard,Ballard,NW,Seattle,WA
Ballard District Council,http://www.ballarddistrictcouncil.org/,,,,website,district council,,,,,,community,,,,Ballard,Ballard,NW,Seattle,WA
Ballard Gossip Girl,http://www.ballardgossipgirl.com/,,,,blog,"restaurants, nightlife, shopping",,,,,,commercial,,,,Ballard,Ballard,NW,Seattle,WA
Ballard Historical Society,http://www.ballardhistory.org/,,,,website,historical society,,,,,,community,,,,Ballard,Ballard,NW,Seattle,WA
Ballard Moms,http://groups.yahoo.com/group/BallardMoms/,,,,email list,Ballard parents,,,,,,community,,,,Ballard,Ballard,NW,Seattle,WA
Ballard Neighbor Connection,http://groups.yahoo.com/group/BallardNeighborConnection/,,,,email list,neighborhood residents,,,,,,community,,,,Ballard,Ballard,NW,Seattle,WA
ballardite blog,http://www.ballardite.blogspot.com/,,,,blog,"news, personal",,,,,,personal,,,,Ballard,Ballard,NW,Seattle,WA
Central Ballard Community Council,http://www.neighborhoodlink.com/seattle/cbcc/,,,,website,community council,,,,,,community,,,,Ballard,Ballard,NW,Seattle,WA
Crown Hill Neighbors,http://www.crownhillneighbors.org,,,,website,"neighborhood-issues, neighborhood-planning, news",,,,,,community,,,,Crown Hill,Ballard,NW,Seattle,WA
East Ballard Community Association Blog,http://eastballard.wordpress.com/,,,,blog,"community association, news, events, meeting",,,,,,community,,,,Ballard,Ballard,NW,Seattle,WA
InBallard,http://inballard.com/,,,,website,"food, nightlife, shopping, services",,,,,,commercial,,,,Ballard,Ballard,NW,Seattle,WA
MyBallard,http://www.myballard.com/,,,,blog,"news, events, human interest, criminal activity, shopping",,,,,,commercial,,,,Ballard,Ballard,NW,Seattle,WA
Shilshole Blog,http://shilsholecommunity.org/,,,,blog,"news, weather, events, criminal activity",,,,,,commercial,,,,Ballard,Ballard,NW,Seattle,WA
Sustainable Ballard,http://sustainableballard.org/wiki/index.php?title=Welcome_to_Sustainable_Ballard!,,,,wiki,community group,,,,,,community,,,,Ballard,Ballard,NW,Seattle,WA
Sustainable Crown Hill,http://sustainablecrownhill.org/wp/,,,,website,"community group, has mailing list",,,,,,community,,,,Crown Hill,Ballard,NW,Seattle,WA
Walkable Crown Hill,http://walkablecrownhill.org/,,,,website,neighborhood group,,,,,,community,,,,Crown Hill,Ballard,NW,Seattle,WA
Central Area Community Festival Association,http://www.cacf.com/,,,,website,festival planning association,,,,,,community,,,,Central District,Central,E,Seattle,WA
Central District News,http://www.centraldistrictnews.com/,,,,blog,"news, events, food, drink, reviews",,,,,,commercial,,,,Central District,Central,E,Seattle,WA
Friends of Frink Park,http://www.frinkpark.org/,,,,website,park issues,,,,,,community,,,,Central District,Central,E,Seattle,WA
Leschi Community Council,http://groups.google.com/group/LeschiCC?hl=en,,,,email list,"planning, meeting times",,,,,,community,,,,Leschi,Central,E,Seattle,WA
Madrona Moms,http://health.groups.yahoo.com/group/MadronaMoms/,,,,email list,community group (moms),,,,,,community,,,,Madrona,Central,E,Seattle,WA
Madrona Neighborhood,http://madrona.wetpaint.com/,,,,wiki,"neighborhood community site: buying/selling, restaurants, favorite places, etc.  Also community association meeting minutes",,,,,,community,,,,Madrona,Central,E,Seattle,WA
Squire Park Community Council,http://groups.yahoo.com/group/squirepark/,,,,email list,community group,,,,,,community,,,,Central District,Central,E,Seattle,WA
Squire Park Community Council,http://www.squirepark.org/,,,,blog,community group,,,,,,community,,,,Central District,Central,E,Seattle,WA
Community Harvest of Southwest Seattle,http://gleanit.org,,,,website,sustainable food,,,,,,community,,,,West Seattle,Delridge,SW,Seattle,WA
Delridge Grassroots Leadership,http://delridge.blogspot.com/,,,,website,community organization,,,,,,community,,,,Delridge,Delridge,SW,Seattle,WA
Delridge Neighborhoods Development Association,http://www.dnda.org/,,,,website,neighborhood association,,,,,,community,,,,Delridge,Delridge,SW,Seattle,WA
Delridge Produce Cooperative,http://sites.google.com/site/delridgeproducecooperative/,,,,website,produce coop,,,,,,community,,,,Delridge,Delridge,SW,Seattle,WA
Highland Park Action Committee,http://www.highlandpk.net/,,,,website,community group,,,,,,community,,,,Highland Park,Delridge,SW,Seattle,WA
Highland Park Improvement Club,http://www.hpic1919.org/,,,,blog,neighborhood group,,,,,,community,,,,Highland Park,Delridge,SW,Seattle,WA
Longfellow Creek Community Website,http://www.longfellowcreek.org/,,,,website,watershed info,,,,,,community,,,,Delridge,Delridge,SW,Seattle,WA
Nature Consortium,http://www.naturec.org,,,,website,environmental conservation,,,,,,community,,,,Delridge,Delridge,SW,Seattle,WA
North Delridge Neighborhood Council,http://ndnc.org/,,,,website,events calendar,,,,,,community,,,,Delridge,Delridge,SW,Seattle,WA
Pigeon Point Neighborhood Council,http://www.pigeonpoint.org/,,,,website,neighborhood council,,,,,,community,,,,Pigeon Point,Delridge,SW,Seattle,WA
Westwood Neighborhood Council,http://www.scn.org/neighbors/westwood/,,,,website,neighborhood council,,,,,,community,,,,Westwood,Delridge,SW,Seattle,WA
White Center Community Development Association,http://www.wccda.org/home,,,,website,nonprofit,,,,,,community,,,,White Center,Delridge,SW,Seattle,WA
White Center Community Development Association blog,http://twitter.com/whitecentercda,,,,website,nonprofit,,,,,,community,,,,White Center,Delridge,SW,Seattle,WA
White Center Now,http://whitecenternow.com/,,,,blog,"news, events, food",,,,,,community,,,,White Center,Delridge,SW,Seattle,WA
Youngstown Cultural Arts Center,http://youngstownarts.org,,,,website,arts,,,,,,community,,,,Delridge,Delridge,SW,Seattle,WA
All About Belltown,http://www.belltown.org/,,,,website,lifestyle; linked to cmty and bus associations,,,,,,community,,,,Belltown,Downtown,W,Seattle,WA
belltown,http://www.belltownpeople.com/,,,,blog,"news, events",,,,,,commercial,,,,Belltown,Downtown,W,Seattle,WA
Belltown Community Council,http://www.belltowncommunitycouncil.org/,,,,website,community council,,,,,,community,,,,Belltown,Downtown,W,Seattle,WA
Chinatown/International District,http://www.cidbia.org/,,,,website,business improvement association,,,,,,community,,,,International District,Downtown,W,Seattle,WA
Chinese Information and Service Center,http://www.cisc-seattle.org/,,,,website,"referral, advocacy, support services",,,,,,nonprofit,,,,International District,Downtown,W,Seattle,WA
Downtown Dispatch,http://downtowndispatch.com/,,,,blog,news and events,,,,,,commercial,,,,Downtown,Downtown,W,Seattle,WA
Downtown Seattle Association,http://www.downtownseattle.com/,,,,website,business association,,,,,,,,,,Downtown,Downtown,W,Seattle,WA
KOMO Communities - Downtown,http://downtown.komonews.com,,,,blog,"news, events, human interest, criminal activity, shopping",,,,,,commercial,,,,Downtown,Downtown,W,Seattle,WA
Pioneer Square Community Association,http://www.pioneersquare.org/,,,,website,community organization,,,,,,community,,,,Pioneer Square,Downtown,W,Seattle,WA
SCIPDA,http://www.scidpda.org/,,,,website,public development authority,,,,,,community,,,,International District,Downtown,W,Seattle,WA
Seattle Chinatown Guide,http://www.chinatownconnection.com/seattle-chinatown-international-district.htm,,,,website,"food, shopping",,,,,,commercial,,,,International District,Downtown,W,Seattle,WA
SoDo Business Association,http://www.sodobusinessassociation.org/,,,,website,business association,,,,,,community,,,,SoDo,Downtown,S,Seattle,WA
Wing Luke Asian Museum,http://www.wingluke.org/,,,,website,museum,,,,,,community,,,,International District,Downtown,W,Seattle,WA
15th Ave Community,http://groups.yahoo.com/group/15thAve_Community/,,,,email list,15th avenue residents,,,,,,community,,,,Capitol Hill,East,E,Seattle,WA
Capitol Hill Community Council,http://chcc.wikidot.com/,,,,wiki,"community council, news, events",,,,,,community,,,,Capitol Hill,East,E,Seattle,WA
Capitol Hill Housing,http://capitolhillhousing.org/,,,,website,affordable housing,,,,,,community,,,,Capitol Hill,East,E,Seattle,WA
Capitol Hill Triangle,http://chtriangle.blogspot.com/,,,,blog,local miscellany ,,,,,,commercial,,,,Capitol Hill,East,E,Seattle,WA
CHS Capitol Hill Seattle Blog,http://www.capitolhillseattle.com/,,,,blog,"news, events, food, drink, criminal activity",,,,,,commercial,,,,Capitol Hill,East,E,Seattle,WA
First Hill Improvement Association,http://www.firsthill.org/,,,,website,neighborhood association,,,,,,community,,,,First Hill,East,E,Seattle,WA
KOMO Communities - Captol Hill,http://capitolhill.komonews.com,,,,blog,"news, events, human interest, criminal activity, shopping",,,,,,commercial,,,,Capitol Hill,East,E,Seattle,WA
KOMO Communities - Central District,http://centraldistrict.komonews.com,,,,blog,"news, events, human interest, criminal activity, shopping",,,,,,commercial,,,,Central District,East,E ,Seattle,WA
KOMO Communities - Madison Park,http://madisonpark.komonews.com,,,,blog,"news, events, human interest, criminal activity, shopping",,,,,,commercial,,,,Madison Park,East,E,Seattle,WA
Madison Park Blogger,http://madisonparkblogger.blogspot.com/,,,,blog,"news, housing prices, events",,,,,,commercial,,,,Madison Park,East,E,Seattle,WA
Madison Park Business Association,http://www.madisonparkseattle.com/,,,,website,business association,,,,,,community,,,,Madison Park,East,E,Seattle,WA
Miller Park Neighborhood Association,http://millerparkseattle.blogspot.com/,,,,blog,"neighborhood association; news, events",,,,,,community,,,,Miller Park,East,E,Seattle,WA
North Capitol Hill Neighborhood Association,http://www.nchna.com/,,,,website,"meeting notes, relevant news",,,,,,community,,,,Capitol Hill,East,E,Seattle,WA
Seattle Central Community College,http://seattlecentral.edu/,,,,website,college,,,,,,,,,,Capitol Hill,East,E,Seattle,WA
Your Capitol Hill,http://www.yourcapitolhill.com/,,,,website,"dining, events, nightlife, shopping",,,,,,community,,,,Capitol Hill,East,E,Seattle,WA
All About South Park,http://www.allaboutsouthpark.com/,,,,website,neighborhood info,,,,,,community,,,,South Park,Greater Duwamish,S,Seattle,WA
Beacon Hill Alliance of Neighbors,http://www.cityofseattle.net/ban/,,,,website,"community, public safety",,,,,,community,,,,Beacon Hill,Greater Duwamish,SE,Seattle,WA
Beacon Hill Blog,http://beaconhill.seattle.wa.us/,,,,blog,"news, events, food, nightlife, criminal activity",,,,,,commercial,,,,Beacon Hill,Greater Duwamish,SE,Seattle,WA
Beacon Hill Burglaries,http://maps.google.com/maps/ms?ie=UTF8&hl=en&msa=0&msid=107398592337461190820.000449fcf97ff8bfbe281&z=14or,,,,email list,criminal activity,,,,,,community,,,,Beacon Hill,Greater Duwamish,SE,Seattle,WA
Beacon Hill Community Site,http://beaconhillcommunity.wetpaint.com/,,,,wiki,"news, announcements, community concerns",,,,,,commercial,,,,Beacon Hill,Greater Duwamish,SE,Seattle,WA
Blogging Georgetown,http://www.blogginggeorgetown.com/,,,,blog,"news, events, 911 blotter",,,,,,commercial,,,,Georgetown,Greater Duwamish,SW,Seattle,WA
Blogging Georgetown,http://www.facebook.com/blogginggeorgetown,,,,facebook page,"news, events, 911 blotter",,,,,,community,,,,Georgetown,Greater Duwamish,SW,Seattle,WA
Georgetown Art Center,http://georgetownartcenter.blogspot.com/,,,,blog,community arts,,,,,,community,,,,Georgetown,Greater Duwamish,SW,Seattle,WA
Georgetown Neighborhood,http://www.georgetownneighborhood.com/,,,,website,community council,,,,,,community,,,,Georgetown,Greater Duwamish,SW,Seattle,WA
Georgetown Seattle,http://groups.yahoo.com/group/Georgetown-Seattle/,,,,email list,community members,,,,,,community,,,,Georgetown,Greater Duwamish,SW,Seattle,WA
Jefferson Park Alliance,http://www.cityofseattle.net/commnty/Beacon/groups/jpa/,,,,website,community,,,,,,community,,,,Beacon Hill,Greater Duwamish,SE,Seattle,WA
KOMO Communities - Beacon Hill,http://beaconhill.komonews.com,,,,blog,"news, events, human interest, criminal activity, shopping",,,,,,commercial,,,,Beacon Hill,Greater Duwamish,SE,Seattle,WA
KOMO Communities - Georgetown,http://georgetown.komonews.com,,,,blog,"news, events, human interest, criminal activity, shopping",,,,,,commercial,,,,Georgetown,Greater Duwamish,SW,Seattle,WA
Market On Wheels,http://marketonwheels.wordpress.com/,,,,blog,farmers' market,,,,,,community,,,,South Park,Greater Duwamish,S,Seattle,WA
nbeaconhillneighbors,http://groups.yahoo.com/group/nbeaconhillneighbors/,,,,email list,community members,,,,,,community,,,,Beacon Hill,Greater Duwamish,SE,Seattle,WA
North Beacon Hill,http://north-beacon-hill.blogspot.com/,,,,blog,community council,,,,,,community,,,,Beacon Hill,Greater Duwamish,SE,Seattle,WA
North Beacon Hill Council,http://www.cityofseattle.net/commnty/Beacon/groups/nbhc/,,,,website,community group,,,,,,community,,,,Beacon Hill,Greater Duwamish,SE,Seattle,WA
Seattle Industry,http://www.seattleindustry.org/,,,,website,seattle industry,,,,,,community,,,,Industrial District,Greater Duwamish,S,Seattle,WA
SoDo Business Association,http://www.sodobusinessassociation.org/,,,,website,business association,,,,,,community,,,,Industrial District,Greater Duwamish,S,Seattle,WA
South Park Seattle,http://www.myspace.com/southparkseattle,,,,myspace,neighborhood info,,,,,,community,,,,South Park,Greater Duwamish,S,Seattle,WA
yoursouthpark,http://groups.yahoo.com/group/yoursouthpark/,,,,email list,community members,,,,,,community,,,,South Park,Greater Duwamish,S,Seattle,WA
Cascade People's Center,http://www.cascadepeoplescenter.org/,,,,website,nonprofit,,,,,,community,,,,South Lake Union,Lake Union,W,Seattle,WA
Discover SLU,http://www.discoverslu.com,,,,website,"news, events, shopping, dining",,,,,,commercial,,,,South Lake Union,Lake Union,W,Seattle,WA
Discover SLU,http://www.facebook.com/discoverslu,,,,facebook page,"news, events, shopping, dining",,,,,,commercial,,,,South Lake Union,Lake Union,W,Seattle,WA
Discover SLU,http://www.twitter.com/southlakeunion,,,,twitter,"news, events, shopping, dining",,,,,,commercial,,,,South Lake Union,Lake Union,W,Seattle,WA
Eastlake Ave. ,http://eastlakeave.neighborlogs.com/,,,,blog,"news, traffic, events, criminal activity",,,,,,commercial,,,,Eastlake,Lake Union,W,Seattle,WA
Eastlake Ave. ,http://twitter.com/eastlakeave,,,,blog,updates on blog posts,,,,,,commercial,,,,Eastlake,Lake Union,W,Seattle,WA
Eastlake Community Council,http://www.eastlakeseattle.org/,,,,website,community council,,,,,,community,,,,Eastlake,Lake Union,W,Seattle,WA
Eastlake Community Council,http://www.facebook.com/group.php?gid=7145111961,,,,facebook page,community council,,,,,,community,,,,Eastlake,Lake Union,W,Seattle,WA
Fremont Arts Council,http://groups.yahoo.com/group/fremontartscouncil/,,,,email list,fremont arts council members,,,,,,community,,,,Fremont,Lake Union,NW,Seattle,WA
Fremont Arts Council,http://www.fremontartscouncil.org/,,,,website,communtiy group,,,,,,community,,,,Fremont,Lake Union,NW,Seattle,WA
Fremont Chamber of Commerce,http://www.fremontseattle.com/,,,,website,chamber of commerce,,,,,,community,,,,Fremont,Lake Union,NW,Seattle,WA
Fremont Universe,http://twitter.com/fremontuniverse,,,,twitter,"news, events, food, reviews",,,,,,commercial,,,,Fremont,Lake Union,NW,Seattle,WA
Fremont Universe,http://www.facebook.com/pages/Fremont-Universe-Seattle/88279594341?ref=s,,,,facebook page,"news, events, food, reviews",,,,,,commercial,,,,Fremont,Lake Union,NW,Seattle,WA
Fremont Universe,http://www.fremontuniverse.com/,,,,blog,"news, events, food, reviews",,,,,,commercial,,,,Fremont,Lake Union,NW,Seattle,WA
Friends of Fremont Peak Park,http://www.fremontpeakpark.org/,,,,website,community organization,,,,,,community,,,,Fremont,Lake Union,NW,Seattle,WA
KOMO Communities - Fremont,http://fremont.komonews.com,,,,blog,"news, events, human interest, criminal activity, shopping",,,,,,commercial,,,,Fremont,Lake Union,NW,Seattle,WA
KOMO Communities - South Lake Union,http://southlakeunion.komonews.com,,,,blog,"news, events, human interest, criminal activity, shopping",,,,,,commercial,,,,South Lake Union,Lake Union,W,Seattle,WA
S Lake Union Friends and Neighbors Community Council,http://www.slufan.org/,,,,website,community council,,,,,,community,,,,South Lake Union,Lake Union,W,Seattle,WA
South Lake Union Chamber of Commerce,http://www.sluchamber.org/,,,,website,chamber of commerce,,,,,,community,,,,South Lake Union,Lake Union,W,Seattle,WA
The South Lake Union Community Blog,http://www.thesouthlake.com/,,,,blog,"news, events, personalized profile pages",,,,,,commercial,,,,South Lake Union,Lake Union,W,Seattle,WA
Friends of Discovery Park,http://www.friendsdiscoverypark.org/,,,,website,park issues,,,,,,community,,,,Magnolia,Magnolia/Queen Anne,W,Seattle,WA
Interbay District Blog,http://www.interbaydistrict.com/,,,,blog,"news, sports",,,,,,community,,,,Interbay,Magnolia/Queen Anne,NW,Seattle,WA
Interbay Neighborhood Association,http://www.our-interbay.org/,,,,website,neighborhood association,,,,,,community,,,,Interbay,Magnolia/Queen Anne,NW,Seattle,WA
KOMO Communities - Magnolia,http://magnolia.komonews.com,,,,blog,"news, events, human interest, criminal activity, shopping",,,,,,commercial,,,,Magnolia,Magnolia/Queen Anne,NW,Seattle,WA
KOMO Communities - Queen Anne,http://queenanne.komonews.com,,,,blog,"news, events, human interest, criminal activity, shopping",,,,,,commercial,,,,Queen Anne,Magnolia/Queen Anne,W,Seattle,WA
Magnolia Action Group,http://www.orgsites.com/wa/mag/,,,,website,planning issues,,,,,,community,,,,Magnolia,Magnolia/Queen Anne,W,Seattle,WA
Magnolia Chamber of Commerce,http://www.magnoliachamber.org/,,,,website,chamber of commerce,,,,,,community,,,,Magnolia,Magnolia/Queen Anne,W,Seattle,WA
Magnolia Historical Society,http://www.magnoliahistoricalsociety.org/,,,,website,historical society,,,,,,community,,,,Magnolia,Magnolia/Queen Anne,W,Seattle,WA
Magnolia is Really Part of Seattle,http://sleeplessinmagnolia.ning.com/,,,,wiki,planning issues,,,,,,community,,,,Magnolia,Magnolia/Queen Anne,W,Seattle,WA
Magnolia Neighborhood Planning Council,http://magnolianpc.com/,,,,website,neighborhood association,,,,,,community,,,,Magnolia,Magnolia/Queen Anne,W,Seattle,WA
Magnolia Voice,http://twitter.com/magnoliavoice,,,,twitter,"news, events, criminal activity, food",,,,,,commercial,,,,Magnolia,Magnolia/Queen Anne,NW,Seattle,WA
Magnolia Voice,http://www.facebook.com/pages/Magnolia-Voice-Seattle/116057104388,,,,facebook page,"news, events, criminal activity, food",,,,,,commercial,,,,Magnolia,Magnolia/Queen Anne,NW,Seattle,WA
Magnolia Voice,http://www.magnoliavoice.com/,,,,blog,"news, events, criminal activity, food",,,,,,commercial,,,,Magnolia,Magnolia/Queen Anne,W,Seattle,WA
Queen Anne Chamber of Commerce,http://qachamber.org/,,,,website,chamber of commerce,,,,,,community,,,,Queen Anne,Magnolia/Queen Anne,W,Seattle,WA
Queen Anne Community Council,http://www.qacc.net/,,,,website,community council,,,,,,community,,,,Queen Anne,Magnolia/Queen Anne,W,Seattle,WA
Queen Anne Examiner,http://www.examiner.com/x-8856-Seattle-Queen-Anne-Hill-Examiner,,,,blog,"news, local issues",,,,,,commercial,,,,Queen Anne,Magnolia/Queen Anne,W,Seattle,WA
Queen Anne Helpline,http://queenannehelpline.org/index.php,,,,website,nonprofit,,,,,,community,,,,Queen Anne,Magnolia/Queen Anne,W,Seattle,WA
Queen Anne Historical Society,http://www.qahistory.org/,,,,website,historical society,,,,,,community,,,,Queen Anne,Magnolia/Queen Anne,W,Seattle,WA
Queen Anne View,http://www.queenanneview.com/,,,,blog,"news, events, reviews",,,,,,commercial,,,,Queen Anne,Magnolia/Queen Anne,W,Seattle,WA
Rosiehood,http://twitter.com/Roosiehood,,,,twitter,"news, events, human interest, criminal activity",,,,,,community,,,,Roosevelt,NE,NE,Seattle,WA
Rosiehood,http://www.facebook.com/pages/Roosevelt-Neighborhood-Blog/133948283288085,,,,facebook page,"news, events, human interest, criminal activity",,,,,,community,,,,Roosevelt,NE,NE,Seattle,WA
Rosiehood,http://www.roosiehood.com/,,,,blog,"news, events, human interest, criminal activity",,,,,,community,,,,Roosevelt,NE,NE,Seattle,WA
Haller Lake Community Club,http://www.hallerlake.info/welcome.html,,,,website,community organization,,,,,,community,,,,Haller Lake,North,N,Seattle,WA
KOMO Communities - Lake City,http://lakecity.komonews.com,,,,blog,"news, events, human interest, criminal activity, shopping",,,,,,commercial,,,,Lake City,North,NE,Seattle,WA
KOMO Communities - North Seattle,http://northseattle.komonews.com,,,,blog,"news, events, human interest, criminal activity, shopping",,,,,,commercial,,,,North Seattle,North,N,Seattle,WA
Lake City Live,http://www.lakecitylive.net/,,,,blog,"news, criminal activity, food, drink, reviews",,,,,,commercial,,,,Lake City,North,NE,Seattle,WA
Maple Leaf Life,http://twitter.com/mapleleaflife,,,,twitter,"news, events, human interest, criminal activity, shopping",,,,,,commercial,,,,Maple Leaf,North,N ,Seattle,WA
Maple Leaf Life,http://www.facebook.com/pages/Seattle-WA/Maple-Leaf-Life/298056021657,,,,facebook page,"news, events, human interest, criminal activity, shopping",,,,,,commercial,,,,Maple Leaf,North,N,Seattle,WA
Maple Leaf Life,http://www.mapleleaflife.com/,,,,blog,"news, events, human interest, criminal activity, shopping",,,,,,commercial,,,,Maple Leaf,North,N,Seattle,WA
Northgate Chamber of Commerce,http://www.northgatechamber.com/,,,,website,chamber of commerce,,,,,,community,,,,Northgate,North,NE,Seattle,WA
Pinehurst Seattle,http://pinehurstseattle.org,,,,blog,"news, events, issues",,,,,,community,,,,Pinehurst,North,NE,Seattle,WA
Pinehurst Seattle,http://twitter.com/pinehurstsea,,,,twitter,"news, events, issues",,,,,,community,,,,Pinehurst,North,NE,Seattle,WA
Pinehurst Seattle,http://www.facebook.com/#!/group.php?gid=53590206898&v=wall&ref=search,,,,facebook page,"news, events, issues",,,,,,community,,,,Pinehurst,North,NE,Seattle,WA
The Maple Leafer,http://twitter.com/themapleleafer,,,,twitter,"news, events, human interest, criminal activity, shopping",,,,,,commercial,,,,Maple Leaf,North,N,Seattle,WA
The Maple Leafer,http://www.facebook.com/pages/The-Maple-Leafer/110782042284727,,,,facebook page,"news, events, human interest, criminal activity, shopping",,,,,,commercial,,,,Maple Leaf,North,N,Seattle,WA
The Maple Leafer,http://www.themapleleafer.com/,,,,blog,"news, events, human interest, criminal activity, shopping",,,,,,commercial,,,,Maple Leaf,North,N,Seattle,WA
Aurora Seattle,http://www.auroraseattle.com/,,,,blog,"news, traffic, planning",,,,,,community,,,,Regional Sites,Northeast,NE,Seattle,WA
Hawthorne Hills Community Website,http://www.seattle.gov/hawthornehills/index.htm,,,,website,community council,,,,,,community,,,,Hawthorne Hills,Northeast,NE,Seattle,WA
KOMO Communities - U-District,http://udistrict.komonews.com,,,,blog,"news, events, human interest, criminal activity, shopping",,,,,,commercial,,,,University District,Northeast,NE,Seattle,WA
KOMO Communities - View Ridge,http://viewridge.komonews.com,,,,blog,"news, events, human interest, criminal activity, shopping",,,,,,commercial,,,,View Ridge,Northeast,NE,Seattle,WA
Laurelhurst Community Club,http://www.laurelhurstcc.com/,,,,website,community club,,,,,,community,,,,Laurelhurst,Northeast,NE,Seattle,WA
Magnuson Community Garden,http://cityofseattle.net/MAGNUSONGARDEN,,,,website,garden,,,,,,,,,,Laurelhurst,Northeast,NE,Seattle,WA
Magnuson Environmental Stewardship Alliance,http://mesaseattle.org/,,,,website,park issues,,,,,,community,,,,Laurelhurst,Northeast,NE,Seattle,WA
Maple Leaf Community Council,http://www.mapleleafcommunity.org/,,,,website,"community council, email list available",,,,,,community,,,,Maple Leaf,Northeast,NE,Seattle,WA
Ravenna Blog,http://twitter.com/ravennablog,,,,twitter,"news, events, human interest, criminal activity, food, shopping",,,,,,community,,,,Ravenna,Northeast,NE,Seattle,WA
Ravenna Blog,http://www.facebook.com/pages/Ravenna-Blog/116280421718247,,,,facebook page,"news, events, human interest, criminal activity, food, shopping",,,,,,community,,,,Ravenna,Northeast,NE,Seattle,WA
Ravenna Blog,http://www.ravennablog.com/,,,,blog,"news, events, human interest, criminal activity, food, shopping",,,,,,community,,,,Ravenna,Northeast,NE,Seattle,WA
Ravenna-Bryant Community Association,http://www.facebook.com/pages/Ravenna-Bryant-Community-Association/153638664651035,,,,facebook page,community association,,,,,,community,,,,Ravenna,Northeast,NE,Seattle,WA
Ravenna-Bryant Community Association,http://www.ravennabryant.org/,,,,website,community association,,,,,,community ,,,,Ravenna,Northeast,NE,Seattle,WA
Roosevelt Neighborhood Association,http://rooseveltseattle.org/default.aspx,,,,website,neighborhood association,,,,,,community,,,,Roosevelt,Northeast,NE,Seattle,WA
Roosevelt Neighborhood Association,http://www.facebook.com/group.php?gid=178766520060,,,,facebook page,neighborhood association,,,,,,community,,,,Roosevelt,Northeast,NE,Seattle,WA
Roosevelt Neighbors' Alliance,http://www.rooseveltneighborsalliance.org/main/Roosevelt_Neighbors_Alliance.html,,,,website,neighborhood association,,,,,,community,,,,Roosevelt,Northeast,NE,Seattle,WA
Roosevelt Seattle,http://twitter.com/roosieseattle,,,,twitter,"news, events",,,,,,community,,,,Roosevelt,Northeast,NE,Seattle,WA
Sustainable Northeast Seattle,http://sustainableneseattle.ning.com/,,,,ning,community group,,,,,,community,,,,"Wedgwood, Laurelhurst, Ravenna, Roosevelt",Northeast,NE,Seattle,WA
The Laurelhurst Blog,http://thelaurelhurstblog.blogspot.com/,,,,blog,"news, events",,,,,,community,,,,Laurelhurst,Northeast,NE,Seattle,WA
The Wedgwood Blog,http://wedgwoodblog.spaces.live.com/default.aspx,,,,blog,"news, events",,,,,,commercial,,,,Wedgwood,Northeast,NE,Seattle,WA
Thornton Creek Alliance,http://www.scn.org/tca/,,,,website,community group,,,,,,,,,,Thornton Creek,Northeast,NE,Seattle,WA
U District Daily,http://www.udistrictdaily.com/,,,,blog,"news, events, human interest, criminal activity, shopping",,,,,,commercial,,,,University District,Northeast,NE,Seattle,WA
University District Business Improvement Area,http://www.udistrictchamber.org/UDBIA/index.html,,,,website,business association,,,,,,community,,,,University District,Northeast,NE,Seattle,WA
University District Food Bank,http://www.facebook.com/pages/Seattle-WA/University-District-Food-Bank/47523824407,,,,facebook page,food bank,,,,,,community,,,,University District,Northeast,NE,Seattle,WA
University District Food Bank,http://www.udistrictfoodbank.org/,,,,website,food bank,,,,,,community,,,,University District,Northeast,NE,Seattle,WA
University District Seattle,http://www.udistrictchamber.org/GUCC/GUCC.html,,,,website,chamber of commerce,,,,,,community,,,,University District,Northeast,NE,Seattle,WA
University District Service Fund,http://www.udistrictchamber.org/udistrictservicefund/index.html,,,,website,nonprofit,,,,,,community,,,,University District,Northeast,NE,Seattle,WA
Wedgwood Block Watch,http://www.wedgwoodcc.org/wwbw/,,,,website,block watch,,,,,,community,,,,Wedgwood,Northeast,NE,Seattle,WA
Wedgwood Community Council,http://www.wedgwoodcc.org/,,,,website,community council,,,,,,community,,,,Wedgwood,Northeast,NE,Seattle,WA
Wedgwood Community Council,http://www.facebook.com/pages/Wedgwood-Community-Council/146730522040662,,,,facebook page,community council,,,,,,community,,,,Wedgwood,Northeast,NE,Seattle,WA
Wedgwood View,http://twitter.com/wedgwoodview,,,,twitter,"news, events, human interest, criminal activity, shopping",,,,,,commercial,,,,Wedgwood,Northeast,NE,Seattle,WA
Wedgwood View,http://www.facebook.com/pages/Wedgwood-View/331236446338,,,,facebook page,"news, events, human interest, criminal activity, shopping",,,,,,commercial,,,,Wedgwood,Northeast,NE,Seattle,WA
Wedgwood View,http://www.wedgwoodview.com/,,,,blog,"news, events, human interest, criminal activity, shopping",,,,,,commercial,,,,Wedgwood,Northeast,NE,Seattle,WA
Blue Ridge Club,http://www.blueridgeseattle.com/index.php,,,,website,homeowners club,,,,,,community,,,,Blue Ridge,Northwest,,Seattle,WA
Broadview Community Council,http://groups.google.com/group/broadview-community-council,,,,email list,community council,,,,,,community,,,,Broadview,Northwest,SW,Seattle,WA
Broadview Community Council,http://www.broadviewseattle.org/,,,,blog,community council,,,,,,community,,,,Broadview,Northwest,NW,Seattle,WA
Friends of Green Lake,http://www.friendsofgreenlake.org/,,,,website,neighborhood group,,,,,,community,,,,Green Lake,Northwest,NW,Seattle,WA
Greater Greenwood Bi-Ped Safety Coalition,http://bipedsafety.org/,,,,website,community group,,,,,,community,,,,Greenwood,Northwest,NW,Seattle,WA
Greenlake Community Council,http://www.greenlakecommunitycouncil.org/,,,,website,community council,,,,,,community,,,,Green Lake,Northwest,NW,Seattle,WA
Greenlake Community Wiki,http://greenlake.wetpaint.com/,,,,wiki,"events, for sale, services",,,,,,community,,,,Green Lake,Northwest,NW,Seattle,WA
Greenwood Aurora Involved Neighbors,http://www.gainseattle.com/,,,,website,neighborhood association,,,,,,community,,,,Greenwood,Northwest,NW,Seattle,WA
Greenwood Blog,http://www.greenwoodblog.com/,,,,blog,"news, events",,,,,,commercial,,,,Greenwood,Northwest,NW,Seattle,WA
Greenwood Community Council,http://www.greenwoodcommunitycouncil.org/about/,,,,website,community council,,,,,,community,,,,Greenwood,Northwest,NW,Seattle,WA
Greenwood Community Council Announcements,http://groups.yahoo.com/group/Greenwood_News/,,,,email list,community council,,,,,,community,,,,Greenwood,Northwest,NW,Seattle,WA
Greenwood Community Council Discussion,http://groups.yahoo.com/group/greenwood-discussion/,,,,email list,community council,,,,,,community,,,,Greenwood,Northwest,NW,Seattle,WA
Greenwood Phinney Chamber of Commerce,http://www.greenwood-phinney.com/,,,,website,chamber of commerce,,,,,,community,,,,Greenwood,Northwest,NW,Seattle,WA
KOMO Communities - Ballard,http://ballard.komonews.com/,,,,blog,"news, events, human interest, criminal activity, shopping",,,,,,commercial,,,,Ballard,Northwest,NW,Seattle,WA
KOMO Communities - Green Lake,http://greenlake.komonews.com,,,,blog,"news, events, human interest, criminal activity, shopping",,,,,,commercial,,,,Green Lake,Northwest,NW,Seattle,WA
KOMO Communities - Greenwood-Phinney,http://greenwood-phinney.komonews.com,,,,blog,"news, events, human interest, criminal activity, shopping",,,,,,commercial,,,,Greenwood-Phinney,Northwest,NW,Seattle,WA
KOMO Communities - Wallingford,http://wallingford.komonews.com,,,,blog,"news, events, human interest, criminal activity, shopping",,,,,,commercial,,,,Wallingford,Northwest,NW,Seattle,WA
Licton Springs Neighborhood ,http://www.lictonsprings.org/,,,,website,neighborhood council,,,,,,community,,,,Licton Springs,Northwest,NW,Seattle,WA
My Greenlake Blog,http://www.mygreenlake.com/,,,,blog,"news, events, food",,,,,,commercial,,,,Green Lake,Northwest,NW,Seattle,WA
MyWallingford,http://mywallingford.com,,,,blog,"news, events, human interest, criminal activity, shopping",,,,,,commercial,,,,Wallingford,Northwest,NW,Seattle,WA
MyWallingford,http://twitter.com/mywallingford,,,,twitter,"news, events, human interest, criminal activity, shopping",,,,,,commercial,,,,Wallingford,Northwest,NW,Seattle,WA
MyWallingford,http://www.facebook.com/MyWallingford?ref=ts,,,,facebook page,"news, events, human interest, criminal activity, shopping",,,,,,commercial,,,,Wallingford,Northwest,NW,Seattle,WA
Northwest District Council,http://www.nwdistrictcouncil.org/,,,,website,district council,,,,,,community,,,,Northwest,Northwest,NW,Seattle,WA
Phinney Neighborhood Association,http://phinneycenter.blogspot.com/,,,,blog,association news and events,,,,,,community,,,,Phinney Ridge,Northwest,NW,Seattle,WA
Phinney Neighborhood Association,http://www.facebook.com/group.php?gid=42314991794,,,,facebook page,neighborhood association,,,,,,community,,,,Phinney Ridge,Northwest,NW,Seattle,WA
Phinney Neighborhood Association,http://www.phinneycenter.org/,,,,website,neighborhood association,,,,,,community,,,,Phinney Ridge,Northwest,NW,Seattle,WA
Phinney Ridge Ecovillage,http://www.phinneyecovillage.net/,,,,website,community group,,,,,,community,,,,Phinney Ridge,Northwest,NW,Seattle,WA
PhinneyWood,http://www.phinneywood.com/,,,,blog,"news, events, food, shopping",,,,,,commercial,,,,Phinney Ridge,Northwest,NW,Seattle,WA
Solid Ground,http://www.facebook.com/pages/Solid-Ground/20665239656,,,,facebook page,nonprofit,,,,,,community,,,,Wallingford,Northwest,NW,Seattle,WA
Solid Ground,http://www.solid-ground.org/Pages/Default.aspx,,,,website,nonprofit,,,,,,community,,,,Wallingford,Northwest,NW,Seattle,WA
Sustainable Greenwood/Phinney,http://web.me.com/annecann1/iWeb/Site/Home.html,,,,website,susainability,,,,,,community,,,,Phinney Ridge,Northwest,NW,Seattle,WA
Vision Greenwood Park Seattle,http://www.facebook.com/pages/Vision-Greenwood-Park-Seattle/165995713450762,,,,facebook page,"park issues, events, neighborhood-issues, neighborhood-planning",,,,,,community,,,,Greenwood,Northwest,NW,Seattle,WA
Wallingford Chamber of Commerce,http://wallingfordchamber.org/,,,,website,chamber of commerce,,,,,,community,,,,Wallingford,Northwest,NW,Seattle,WA
Wallingford Community Council,http://council.iactivesite.com/,,,,website,community council,,,,,,community,,,,Wallingford,Northwest,NW,Seattle,WA
Wallingford Seattle Blog,http://twitter.com/wallingford,,,,twitter,"news, events, advice",,,,,,community,,,,Wallingford,Northwest,NW,Seattle,WA
Wallingford Seattle Blog,http://wallingfordseattle.tumblr.com/,,,,blog,"news, events, advice",,,,,,community,,,,Wallingford,Northwest,NW,Seattle,WA
Wallingford.org,http://www.wallingford.org/,,,,website,neighborhood group,,,,,,community,,,,Wallingford,Northwest,NW,Seattle,WA
Wallyhood - Wallingford Seattle Blog,http://twitter.com/wallyhood,,,,twitter,"news, events",,,,,,commercial,,,,Wallingford,Northwest,NW ,Seattle,WA
Wallyhood - Wallingford Seattle Blog,http://www.wallyhood.org/,,,,blog,"news, events",,,,,,commercial,,,,Wallingford,Northwest,NW,Seattle,WA
Bike Works!,http://www.bikeworks.org/,,,,website,community group,,,,,,,,,,Columbia City,Southeast,SE,Seattle,WA
Columbia Citizens,http://columbiacitizens.net/,,,,wiki,"neighborhood community site; buying/selling, restaurants, favorite places, etc.",,,,,,community,,,,Columbia City,Southeast,SE,Seattle,WA
Columbia Citizens,http://twitter.com/CCitizens,,,,twitter,twitter for Columbia Citizens,,,,,,community,,,,Columbia City,Southeast,SE,Seattle,WA
Columbia Citizens,http://www.facebook.com/pages/Columbia-Citizens/48558627705,,,,facebook page,"neighborhood community site; buying/selling, restaurants, favorite places, etc.",,,,,,community,,,,Columbia City,Southeast,SE,Seattle,WA
Columbia City Blog,http://www.columbiacityblog.com/,,,,blog,"news, events, food, shopping",,,,,,commercial,,,,Columbia City,Southeast,SE,Seattle,WA
"Columbia City, Seattle",http://www.columbiacityseattle.com/,,,,website,business association,,,,,,community,,,,Columbia City,Southeast,SE,Seattle,WA
Columbia City: Rainier Valley,http://www.rainiervalley.org/,,,,website,portal,,,,,,community,,,,Rainier Valley,Southeast,SE,Seattle,WA
Friends of Seward Park,http://www.sewardpark.org/,,,,website,park issues,,,,,,community,,,,Seward Park,Southeast,SE,Seattle,WA
Hillman City Neighborhood Alliance,http://www.hillmancity.org/,,,,website,neighborhood alliance,,,,,,,,,,Hillman City,Southeast,SE,Seattle,WA
KOMO Communities - Columbia City,http://columbiacity.komonews.com,,,,blog,"news, events, human interest, criminal activity, shopping",,,,,,commercial,,,,Columbia City,Southeast,SE,Seattle,WA
KOMO Communities - Rainier Valley,http://rainiervalley.komonews.com,,,,blog,"news, events, human interest, criminal activity, food, shopping",,,,,,commercial,,,,Rainier Valley,Southeast,SE,Seattle,WA
MLK Business Association,http://www.mlkba.org/,,,,website,business association,,,,,,community,,,,Rainier Valley,Southeast,SE,Seattle,WA
Mount Baker Community Club,http://groups.yahoo.com/group/MBCCCommunityNotices/,,,,email list,community club,,,,,,,,,,Mount Baker,Southeast,SE,Seattle,WA
Mount Baker Neighborhood ,http://www.mountbaker.org/index.php,,,,website,community group,,,,,,community,,,,Mount Baker,Southeast,SE,Seattle,WA
New Holly Neighborhood Campus,http://www.newholly.org/,,,,website,services portal,,,,,,community,,,,Rainier Valley,Southeast,SE,Seattle,WA
New Rainier Vista,http://newrainiervista.com/public/about/,,,,blog,"news, events, human interest, criminal activity, shopping",,,,,,community,,,,Rainier Beach,Southeast,SE,Seattle,WA
Othello Neighborhood Association,http://othello.talkspot.com/,,,,website,neighborhood association,,,,,,community,,,,Othello,Southeast,SE,Seattle,WA
Rainier Beach Community Empowerment Coalition,http://twitter.com/rainierbeach,,,,twitter,"news, events, issues",,,,,,community,,,,Rainier Beach,Southeast,SE,Seattle,WA
Rainier Beach Community Empowerment Coalition,http://www.rbcoalition.org/,,,,blog,"news, events, issues",,,,,,community,,,,Rainier Beach,Southeast,SE,Seattle,WA
Rainier Valley Historical Society,http://www.rainiervalleyhistory.org/,,,,website,historical society,,,,,,community,,,,Rainier Valley,Southeast,SE,Seattle,WA
Rainier Valley Post,http://www.rainiervalleypost.com/,,,,blog,"news, events, 911 blotter, food, reviews",,,,,,commercial,,,,Rainier Valley,Southeast,SE,Seattle,WA
Seattle's Othello Neighborhood,http://othelloneighborhood.org/default.aspx,,,,website,shared community group website,,,,,,community,,,,Othello,Southeast,SE,Seattle,WA
Southeast District Council,http://sedcseattle.wordpress.com/,,,,blog,district council,,,,,,community,,,,"Rainier Valley, Columbia City, Hillman City, Othello, Rainier Beach, Mount Baker",Southeast,SE,Seattle,WA
Southend Seattle,http://southendseattle.com,,,,blog,"news, events, human interest",,,,,,community,,,,"Beacon Hill, Mount Baker, Genesee, Georgetown, Columbia City, Hillman City, Lakewood-Seward Park, Rainier Beach, Bryn Mawr- Skyway, Lakeridge, South Park, Allentown","Southeast, Greater Duwamish","SE, SW",Seattle,WA
Admiral Neighborhood Association,http://groups.yahoo.com/group/AdmiralNeighborhood/,,,,email list,neighborhood association,,,,,,community,,,,Admiral (West Seattle),Southwest,SW,Seattle,WA
Alki News,http://groups.yahoo.com/group/alkibeachcommunity/,,,,email list,members of the Alki Community Council and residents of the Alki Beach neighborhood,,,,,,community,,,,Alki,Southwest,SW,Seattle,WA
Alki News/Alki Community Council,http://alkinews.wordpress.com/,,,,blog,"news, council meetings",,,,,,community,,,,Alki,Southwest,SW,Seattle,WA
ArtsWest,http://www.artswest.org/?q=node/28,,,,website,arts,,,,,,community,,,,West Seattle,Southwest,SW,Seattle,WA
Beach Drive Blog,http://www.mortgageporter.com/beach_drive/,,,,blog,"news, home sales, crime",,,,,,commercial,,,,Alki,Southwest,SW,Seattle,WA
Fauntleroy Community Association,http://fauntleroy.net/,,,,website,community association,,,,,,community,,,,Fauntleroy,Southwest,SW,Seattle,WA
Fauntleroy Community Association,http://www.facebook.com/pages/Seattle-WA/Fauntleroy-Community-Association/63181596775?v=wall&viewas=1779772562&ref=ts,,,,facebook page,community assocation,,,,,,community,,,,Fauntleroy,Southwest,SW,Seattle,WA
Genesee-Schmitz Neighborhood Council,http://genesee-schmitz.org/,,,,blog,neighborhood council,,,,,,community,,,,Genesee-Schmitz,Southwest,SW,Seattle,WA
Junction Neighborhood Organization,http://www.wsjuno.com/,,,,blog,"events, meetings",,,,,,community,,,,Junction,Southwest,W,Seattle,WA
KOMO Communities - West Seattle,http://westseattle.komonews.com,,,,blog,"news, events, human interest, criminal activity, shopping",,,,,,commercial,,,,West Seattle,Southwest,SW,Seattle,WA
Morgan Junction Community Association,http://morganjunction.org/,,,,website,community association,,,,,,community,,,,Morgan Junction,Southwest,SW,Seattle,WA
Official Website of the High Point Neighborhood,http://www.highpointneighborhood.org/,,,,website,neighborhood association,,,,,,community,,,,High Point,Southwest,SW,Seattle,WA
Senior Center West Seattle,http://www.sc-ws.org/julaug09/,,,,website,senior center,,,,,,community,,,,West Seattle,Southwest,SW,Seattle,WA
Senior Services,http://www.seniorservices.org/,,,,website,senior sevices,,,,,,community,,,,West Seattle,Southwest,SW,Seattle,WA
The Junction: Downtown West Seattle,http://www.wsjunction.com/,,,,website,neighborhood association,,,,,,community,,,,Junction,Southwest,W,Seattle,WA
West Seattle Chamber of Commerce,http://www.wschamber.com/,,,,website,chamber of commerce,,,,,,community,,,,West Seattle,Southwest,SW,Seattle,WA
White Center Technology Programs,http://technology.program.googlepages.com/,,,,website,tech resources,,,,,,community,,,,White Center,Southwest,SW,Seattle,WA
Sustainable West Seattle,http://www.sustainablewestseattle.org/,,,,blog,"events, issues, food, neighborhood planning",,,,,,community,,,,West Seattle,"Southwest, Delridge",SW,Seattle,WA
West Seattle Blog,http://twitter.com/westseattleblog,,,,twitter,"news, events, human interest",,,,,,commercial,,,,West Seattle,"Southwest, Delridge",SW,Seattle,WA
West Seattle Blog,http://westseattleblog.com/,,,,blog,"news, events, human interest",,,,,,commercial,,,,West Seattle,"Southwest, Delridge",SW,Seattle,WA
West Seattle Blog,http://www.facebook.com/westseattleblog,,,,facebook page,profile page for West Seattle Blog,,,,,,commercial,,,,West Seattle,"Southwest, Delridge",SW,Seattle,WA
West Seattle Herald,http://twitter.com/westseattleher,,,,twitter,online newspaper,,,,,,commercial,,,,West Seattle,"Southwest, Delridge",SW,Seattle,WA
West Seattle Herald,http://www.facebook.com/wsherald,,,,facebook page,online newspaper,,,,,,commercial,,,,West Seattle,"Southwest, Delridge",SW,Seattle,WA
West Seattle Herald,http://www.westseattleherald.com/,,,,website,online newspaper,,,,,,commercial,,,,West Seattle,"Southwest, Delridge",SW,Seattle,WA